{"version": 0.6, "generator": "Overpass API 0.7.62.8 e802775f", "osm3s": {"timestamp_osm_base": "2025-11-21T16:42:36Z", "copyright": "The data included in this document is from www.openstreetmap.org. The data is made available under ODbL."}, "elements": [{"type": "node", "id": 767010759, "lat": 10.3888153, "lon": 107.262063, "tags": {"name": "Thu\u1ef3 D\u01b0\u01a1ng", "name:en": "Thuy Duong", "tourism": "hotel"}}, {"type": "node", "id": 767010764, "lat": 10.4335716, "lon": 107.2947584, "tags": {"tourism": "hotel"}}, {"type": "node", "id": 767010771, "lat": 10.4542458, "lon": 107.3317452, "tags": {"name": "L\u1ed9c An Resort", "name:en": "Loc An Resort", "name:ko": "\ub85d\uc548\ub9ac\uc870\ud2b8", "tourism": "hotel"}}, {"type": "node", "id": 1275889101, "lat": 10.5839318, "lon": 107.5568936, "tags": {"amenity": "cafe", "name": "Cafe V\u01b0\u1eddn Xanh"}}, {"type": "node", "id": 1276258249, "lat": 10.470678, "lon": 107.3743351, "tags": {"name": "KDL H\u1ed3ng Ph", "tourism": "attraction"}}, {"type": "node", "id": 2607408810, "lat": 10.5222939, "lon": 107.2200472}, {"type": "node", "id": 2607408811, "lat": 10.5223619, "lon": 107.2206367}, {"type": "node", "id": 2607408812, "lat": 10.5230014, "lon": 107.2205473}, {"type": "node", "id": 2607408813, "lat": 10.5229374, "lon": 107.21997}, {"type": "node", "id": 2643686941, "lat": 10.4892535, "lon": 107.2702508}, {"type": "node", "id": 2643686944, "lat": 10.489508, "lon": 107.2706967}, {"type": "node", "id": 2643686947, "lat": 10.4901383, "lon": 107.2703454}, {"type": "node", "id": 2643686950, "lat": 10.4899194, "lon": 107.269943}, {"type": "node", "id": 2643686953, "lat": 10.4898693, "lon": 107.2699162}, {"type": "node", "id": 2643686956, "lat": 10.4898271, "lon": 107.2699055}, {"type": "node", "id": 2643686959, "lat": 10.4897823, "lon": 107.2699243}, {"type": "node", "id": 2644320535, "lat": 10.4201195, "lon": 107.2173407}, {"type": "node", "id": 2644320536, "lat": 10.4200935, "lon": 107.2173001}, {"type": "node", "id": 2644320537, "lat": 10.4199136, "lon": 107.2172188}, {"type": "node", "id": 2644320539, "lat": 10.4198456, "lon": 107.2171883}, {"type": "node", "id": 2644320540, "lat": 10.4197537, "lon": 107.217233}, {"type": "node", "id": 2644320542, "lat": 10.4196237, "lon": 107.2173163}, {"type": "node", "id": 2644320544, "lat": 10.4195817, "lon": 107.2173773}, {"type": "node", "id": 2644320547, "lat": 10.4195358, "lon": 107.2174444}, {"type": "node", "id": 2644320549, "lat": 10.4195026, "lon": 107.2174402}, {"type": "node", "id": 2644320553, "lat": 10.4188391, "lon": 107.218839}, {"type": "node", "id": 2644320555, "lat": 10.4188114, "lon": 107.219016}, {"type": "node", "id": 2644320558, "lat": 10.4191767, "lon": 107.2192172}, {"type": "node", "id": 2645526130, "lat": 10.386886, "lon": 107.2342321}, {"type": "node", "id": 2645526131, "lat": 10.3868285, "lon": 107.2342541}, {"type": "node", "id": 2645526132, "lat": 10.3868321, "lon": 107.2342672}, {"type": "node", "id": 2645526133, "lat": 10.3865691, "lon": 107.2343524}, {"type": "node", "id": 2645526134, "lat": 10.3864221, "lon": 107.2343944}, {"type": "node", "id": 2645526135, "lat": 10.3863854, "lon": 107.2343103}, {"type": "node", "id": 2645526136, "lat": 10.3863578, "lon": 107.2343185}, {"type": "node", "id": 2645526137, "lat": 10.3863222, "lon": 107.2342216}, {"type": "node", "id": 2645526138, "lat": 10.3863658, "lon": 107.2342088}, {"type": "node", "id": 2645526139, "lat": 10.3863612, "lon": 107.2341936}, {"type": "node", "id": 2645526140, "lat": 10.3864531, "lon": 107.2341656}, {"type": "node", "id": 2645526141, "lat": 10.3864559, "lon": 107.2341804}, {"type": "node", "id": 2645526142, "lat": 10.3865025, "lon": 107.2341691}, {"type": "node", "id": 2645526143, "lat": 10.386522, "lon": 107.234231}, {"type": "node", "id": 2645526144, "lat": 10.3867815, "lon": 107.2341341}, {"type": "node", "id": 2645526145, "lat": 10.3868509, "lon": 107.23412}, {"type": "node", "id": 2645526146, "lat": 10.386785, "lon": 107.2341401}, {"type": "node", "id": 2653846762, "lat": 10.4057242, "lon": 107.2610718, "tags": {"name": "Di t\u00edch Minh \u0110\u1ea1m", "tourism": "attraction"}}, {"type": "node", "id": 2653856125, "lat": 10.4066222, "lon": 107.2779045}, {"type": "node", "id": 2653856126, "lat": 10.4065236, "lon": 107.2778279}, {"type": "node", "id": 2653856127, "lat": 10.4064862, "lon": 107.2778777}, {"type": "node", "id": 2653856128, "lat": 10.4064286, "lon": 107.277833}, {"type": "node", "id": 2653856129, "lat": 10.406365, "lon": 107.2779175}, {"type": "node", "id": 2653856130, "lat": 10.4062905, "lon": 107.2778596}, {"type": "node", "id": 2653856131, "lat": 10.4063366, "lon": 107.2777982}, {"type": "node", "id": 2653856132, "lat": 10.4061862, "lon": 107.2776812}, {"type": "node", "id": 2653856133, "lat": 10.4059596, "lon": 107.2779824}, {"type": "node", "id": 2653856134, "lat": 10.4061092, "lon": 107.2780988}, {"type": "node", "id": 2653856135, "lat": 10.4062579, "lon": 107.2779011}, {"type": "node", "id": 2653856136, "lat": 10.4063293, "lon": 107.2779566}, {"type": "node", "id": 2653856138, "lat": 10.4062704, "lon": 107.2780349}, {"type": "node", "id": 2653856139, "lat": 10.4062829, "lon": 107.2780446}, {"type": "node", "id": 2653856141, "lat": 10.4062647, "lon": 107.2780688}, {"type": "node", "id": 2653856143, "lat": 10.406727, "lon": 107.2784283}, {"type": "node", "id": 2653856145, "lat": 10.4067706, "lon": 107.2783703}, {"type": "node", "id": 2653856146, "lat": 10.4067932, "lon": 107.2783879}, {"type": "node", "id": 2653856148, "lat": 10.4068266, "lon": 107.2783436}, {"type": "node", "id": 2653856150, "lat": 10.4068506, "lon": 107.2783623}, {"type": "node", "id": 2653856152, "lat": 10.4068955, "lon": 107.2783026}, {"type": "node", "id": 2653856153, "lat": 10.4065853, "lon": 107.2780615}, {"type": "node", "id": 2653856155, "lat": 10.4066335, "lon": 107.2779975}, {"type": "node", "id": 2653856157, "lat": 10.4065823, "lon": 107.2779577}, {"type": "node", "id": 2653856335, "lat": 10.4064123, "lon": 107.2778547}, {"type": "node", "id": 2653856336, "lat": 10.4066178, "lon": 107.2780183}, {"type": "node", "id": 2653865600, "lat": 10.4279543, "lon": 107.2943008}, {"type": "node", "id": 2653865601, "lat": 10.4278708, "lon": 107.294407}, {"type": "node", "id": 2653865602, "lat": 10.4275592, "lon": 107.2939363}, {"type": "node", "id": 2653865603, "lat": 10.427648, "lon": 107.2938372}, {"type": "node", "id": 2669860145, "lat": 10.393077, "lon": 107.231147, "tags": {"addr:street": "\u0110\u01b0\u1eddng s\u1ed1 36", "amenity": "restaurant", "name": "B\u00e1nh x\u00e8o Ng\u1ecdc"}}, {"type": "node", "id": 2669936873, "lat": 10.394229, "lon": 107.230576, "tags": {"amenity": "restaurant", "name": "Tri\u1ec1u Kh\u00e1nh"}}, {"type": "node", "id": 2670548905, "lat": 10.3856274, "lon": 107.2362754, "tags": {"name": "\u0110o\u00e0n An \u0110i\u1ec1u D\u01b0\u1ee1ng 298", "tourism": "hotel"}}, {"type": "node", "id": 3066398353, "lat": 10.4864914, "lon": 107.2296209}, {"type": "node", "id": 3066398354, "lat": 10.4866045, "lon": 107.2295625}, {"type": "node", "id": 3066398355, "lat": 10.4865599, "lon": 107.2295941}, {"type": "node", "id": 3066398357, "lat": 10.4866441, "lon": 107.2297798}, {"type": "node", "id": 3277873262, "lat": 10.4173432, "lon": 107.2185901}, {"type": "node", "id": 3277873263, "lat": 10.4173506, "lon": 107.2186485}, {"type": "node", "id": 3277873264, "lat": 10.4174017, "lon": 107.2186868}, {"type": "node", "id": 3277873265, "lat": 10.4176571, "lon": 107.2181272}, {"type": "node", "id": 3277873266, "lat": 10.4176763, "lon": 107.2181138}, {"type": "node", "id": 3277873267, "lat": 10.4177292, "lon": 107.2187174}, {"type": "node", "id": 3277873268, "lat": 10.4177346, "lon": 107.2181185}, {"type": "node", "id": 3277873269, "lat": 10.4179443, "lon": 107.2183549}, {"type": "node", "id": 3277873270, "lat": 10.4181049, "lon": 107.2187294}, {"type": "node", "id": 3277873271, "lat": 10.4181314, "lon": 107.2187219}, {"type": "node", "id": 3277873272, "lat": 10.4181521, "lon": 107.218635}, {"type": "node", "id": 3277873273, "lat": 10.4181521, "lon": 107.2186905}, {"type": "node", "id": 3277873274, "lat": 10.4181594, "lon": 107.218656}, {"type": "node", "id": 3706341077, "lat": 10.5353048, "lon": 107.3995345}, {"type": "node", "id": 3706341078, "lat": 10.5353186, "lon": 107.3993998}, {"type": "node", "id": 3706341079, "lat": 10.5353379, "lon": 107.3996972}, {"type": "node", "id": 3706341081, "lat": 10.535371, "lon": 107.3992904}, {"type": "node", "id": 3706341082, "lat": 10.5354786, "lon": 107.3991978}, {"type": "node", "id": 3706341085, "lat": 10.5359866, "lon": 107.4002003}, {"type": "node", "id": 3706341086, "lat": 10.5360031, "lon": 107.3999927}, {"type": "node", "id": 3706341087, "lat": 10.5360321, "lon": 107.3998286}, {"type": "node", "id": 3706341088, "lat": 10.5360514, "lon": 107.4005397}, {"type": "node", "id": 3706341089, "lat": 10.536101, "lon": 107.3996294}, {"type": "node", "id": 3706341090, "lat": 10.5362011, "lon": 107.3994766}, {"type": "node", "id": 3706341091, "lat": 10.536301, "lon": 107.3993699}, {"type": "node", "id": 3706341094, "lat": 10.5366091, "lon": 107.4039053}, {"type": "node", "id": 3706341097, "lat": 10.5366826, "lon": 107.4036058}, {"type": "node", "id": 3706341114, "lat": 10.5390028, "lon": 107.3970845}, {"type": "node", "id": 3706341115, "lat": 10.5390686, "lon": 107.3971316}, {"type": "node", "id": 3706341116, "lat": 10.5390549, "lon": 107.3971443}, {"type": "node", "id": 4052976820, "lat": 10.472868, "lon": 107.2724595}, {"type": "node", "id": 4052976821, "lat": 10.4709852, "lon": 107.2733337}, {"type": "node", "id": 4052976822, "lat": 10.47094, "lon": 107.273231}, {"type": "node", "id": 4052976823, "lat": 10.470933, "lon": 107.2731602}, {"type": "node", "id": 4052976824, "lat": 10.4709922, "lon": 107.2730116}, {"type": "node", "id": 4052976825, "lat": 10.4710479, "lon": 107.2728063}, {"type": "node", "id": 4052976826, "lat": 10.4715838, "lon": 107.2725621}, {"type": "node", "id": 4052976827, "lat": 10.4718031, "lon": 107.2726223}, {"type": "node", "id": 4052976828, "lat": 10.4722172, "lon": 107.2724276}, {"type": "node", "id": 4052976829, "lat": 10.472179, "lon": 107.2722861}, {"type": "node", "id": 4052976830, "lat": 10.4727358, "lon": 107.2720489}, {"type": "node", "id": 4052976831, "lat": 10.4706685, "lon": 107.2734788}, {"type": "node", "id": 4052976832, "lat": 10.4687613, "lon": 107.2743742}, {"type": "node", "id": 4052976833, "lat": 10.4685664, "lon": 107.273953}, {"type": "node", "id": 4052976834, "lat": 10.4690954, "lon": 107.273723}, {"type": "node", "id": 4052976835, "lat": 10.469266, "lon": 107.2737831}, {"type": "node", "id": 4052976836, "lat": 10.4697428, "lon": 107.2735708}, {"type": "node", "id": 4052976837, "lat": 10.4696871, "lon": 107.2734363}, {"type": "node", "id": 4052976838, "lat": 10.4702126, "lon": 107.2731992}, {"type": "node", "id": 4052976839, "lat": 10.470404, "lon": 107.2733018}, {"type": "node", "id": 4052976840, "lat": 10.4705189, "lon": 107.2733195}, {"type": "node", "id": 4052976841, "lat": 10.4705989, "lon": 107.2733337}, {"type": "node", "id": 4319481392, "lat": 10.4701898, "lon": 107.3736287, "tags": {"name": "Vietsopetro Resort", "tourism": "hotel"}}, {"type": "node", "id": 4407613796, "lat": 10.3966317, "lon": 107.231255, "tags": {"name": "BTS 302005 VNM", "name:vi": "BTS 302005 VNM", "tourism": "hotel"}}, {"type": "node", "id": 4414223793, "lat": 10.4564238, "lon": 107.2514218, "tags": {"internet_access": "wlan", "name": "Bts 302036 vnm", "name:vi": "Bts 302036 vnm", "tourism": "hotel"}}, {"type": "node", "id": 4469809892, "lat": 10.4373066, "lon": 107.2903773, "tags": {"name:vi": "m\u1ed1c qu\u1eb9o ven bi\u1ec3n", "tourism": "attraction"}}, {"type": "node", "id": 4469809893, "lat": 10.4649082, "lon": 107.2501793, "tags": {"name:vi": "m\u1ed1c trung gian", "tourism": "attraction"}}, {"type": "node", "id": 4469809993, "lat": 10.4370023, "lon": 107.2905297, "tags": {"name:vi": "m\u1ed1c qu\u1eb9o 03", "tourism": "attraction"}}, {"type": "node", "id": 4488063889, "lat": 10.5537378, "lon": 107.5472865, "tags": {"internet_access": "wlan", "tourism": "hotel"}}, {"type": "node", "id": 4506561589, "lat": 10.398097, "lon": 107.2266655, "tags": {"amenity": "cafe"}}, {"type": "node", "id": 4531177791, "lat": 10.3843307, "lon": 107.2397865, "tags": {"name": "Hai Nam Guesthouse", "name:en": "Hai Nam Guesthouse", "name:vi": "Hai Nam Guesthouse", "tourism": "guest_house"}}, {"type": "node", "id": 4546702889, "lat": 10.4693793, "lon": 107.4271254, "tags": {"amenity": "restaurant", "name": "C\u00e2y d\u01b0\u01a1ng qu\u00e1n"}}, {"type": "node", "id": 4546702989, "lat": 10.4612422, "lon": 107.3370931, "tags": {"amenity": "restaurant", "name": "Sau An restaura"}}, {"type": "node", "id": 4546703089, "lat": 10.4710457, "lon": 107.4361842, "tags": {"amenity": "restaurant", "name": "M\u1ef9 L\u1ec7 qu\u00e1n"}}, {"type": "node", "id": 4576227594, "lat": 10.4148369, "lon": 107.2124438, "tags": {"amenity": "restaurant", "name": "nh\u00e0 h\u00e0ng minh di\u1ec7n", "name:en": "nha hang minh dien", "name:vi": "nh\u00e0 h\u00e0ng minh di\u1ec7n", "opening_hours": "24/7"}}, {"type": "node", "id": 4600203390, "lat": 10.4082305, "lon": 107.2266715, "tags": {"amenity": "restaurant", "name": "Quan com chay Dieu Hue", "name:vi": "Quan com chay Dieu Hue"}}, {"type": "node", "id": 4600234393, "lat": 10.5523969, "lon": 107.4870766, "tags": {"name": "Reu Phong", "tourism": "hotel"}}, {"type": "node", "id": 4600267992, "lat": 10.4071399, "lon": 107.2211628, "tags": {"amenity": "cafe", "cuisine": "vietnamese", "diet:vegan": "yes", "name": "Quan Com Chay Dieu Hue"}}, {"type": "node", "id": 4601146491, "lat": 10.4898516, "lon": 107.261764, "tags": {"internet_access": "wlan", "phone": "0928845252", "tourism": "hotel"}}, {"type": "node", "id": 4601152589, "lat": 10.4674735, "lon": 107.2258475, "tags": {"tourism": "hotel"}}, {"type": "node", "id": 4737430221, "lat": 10.582519, "lon": 107.5554051, "tags": {"addr:street": "Qu\u1ed1c l\u1ed9 55", "amenity": "restaurant", "cuisine": "vietnamese", "internet_access": "wlan", "name:en": "Quan An Thuy Trang", "opening_hours": "Mo-Su 08:00-21:00", "phone": "+84643707285"}}, {"type": "node", "id": 4737430223, "lat": 10.5825793, "lon": 107.5555176, "tags": {"addr:street": "Qu\u1ed1c l\u1ed9 55", "amenity": "restaurant", "cuisine": "vietnamese", "internet_access": "wlan", "name:en": "Com Nieu Thuy Trang", "opening_hours": "Mo-Su 08:00-21:00"}}, {"type": "node", "id": 4737435621, "lat": 10.5826512, "lon": 107.5556261, "tags": {"addr:street": "Qu\u1ed1c l\u1ed9 55", "amenity": "restaurant", "cuisine": "vietnamese", "internet_access": "wlan", "name:en": "Com Nieu Huong Viet", "opening_hours": "Mo-Su 08:00-22:00", "phone": "+84643870088"}}, {"type": "node", "id": 4763439627, "lat": 10.5323825, "lon": 107.402373, "tags": {"addr:housenumber": "166", "addr:street": "27 Th\u00e1ng T\u01b0", "amenity": "cafe", "name": "Nguy\u00ean Th\u1ea3o"}}, {"type": "node", "id": 4789617902, "lat": 10.5366458, "lon": 107.403454}, {"type": "node", "id": 5002462321, "lat": 10.397392, "lon": 107.2282306, "tags": {"addr:street": "\u0110\u01b0\u1eddng Trung T\u00e2m Long H\u1ea3i", "amenity": "fast_food", "cuisine": "vietnamese", "internet_access": "wlan", "name": "Trinh - X\u00f4i & Ph\u00e1 L\u1ea5u", "opening_hours": "Mo-Su 15:00-23:00", "operator": "C\u00f4 Trinh", "phone": "0909451451"}}, {"type": "node", "id": 5027885030, "lat": 10.5751555, "lon": 107.5859607, "tags": {"amenity": "restaurant", "name:en": "Com Nieu Thuy Trang", "phone": "+84 64 3871 194"}}, {"type": "node", "id": 5110467522, "lat": 10.4040148, "lon": 107.2342293, "tags": {"amenity": "restaurant", "name": "Qu\u00e1n C\u00e2y Xo\u00e0i"}}, {"type": "node", "id": 5139159922, "lat": 10.4187972, "lon": 107.219226, "tags": {"addr:street": "T\u1ec9nh l\u1ed9 44A", "amenity": "restaurant", "cuisine": "breakfast", "name": "B\u00fan b\u00f2 L\u00f2 v\u00f4i (wifi)"}}, {"type": "node", "id": 5162176022, "lat": 10.4176064, "lon": 107.2179675, "tags": {"addr:street": "H\u01b0\u01a1ng l\u1ed9 5", "amenity": "cafe", "internet_access": "wlan", "name": "Cafe Chau Thanhz", "name:en": "Chau thanh coffee", "name:vi": "Cafe Chau Thanhz", "opening_hours": "Mo-Su 06:00-22:00"}}, {"type": "node", "id": 5162176023, "lat": 10.4187126, "lon": 107.2191698, "tags": {"addr:street": "T\u1ec9nh l\u1ed9 44A", "amenity": "restaurant", "internet_access": "wlan", "name": "Bun bo Lo voi (wifi)", "name:vi": "Bun bo Lo voi (wifi)", "opening_hours": "Mo-Su 06:00-10:00"}}, {"type": "node", "id": 5199575777, "lat": 10.4727992, "lon": 107.4303354, "tags": {"addr:city": "Vietnam", "addr:district": "Xuyen Moc District", "addr:postcode": "7000", "addr:province": "Ba Ria, Vung Tau", "addr:street": "Ven Bi\u1ec3n", "addr:subdistrict": "Ho Tram Hamlet", "email": "info@sanctuary.com.vn", "internet_access": "yes", "internet_access:fee": "yes", "name": "Sanctuary Residential Resort Community", "operator": "Hai Vuong Tourism", "phone": "+84 935163970", "rooms": "28 Villas", "smoking": "separated", "tourism": "hotel", "website": "http://www.sanctuary.com.vn/#page?lang=en"}}, {"type": "node", "id": 5199665121, "lat": 10.471658, "lon": 107.4305221, "tags": {"addr:housenumber": "53", "addr:street": "Sanctuary Ho Tram, Ho Tram Hamlet", "email": "info@sanctuary.com.vn", "internet_access": "wlan", "name": "Sanctuary Residential Resort", "name:en": "Sanctuary Residential Resort", "opening_hours": "24/7", "operator": "Hai Vuong Tourism", "tourism": "hotel", "website": "http://www.sanctuary.com.vn/#page?lang=en"}}, {"type": "node", "id": 5437423448, "lat": 10.4500697, "lon": 107.2821272}, {"type": "node", "id": 5437423449, "lat": 10.4502795, "lon": 107.2816859}, {"type": "node", "id": 5437423450, "lat": 10.4505036, "lon": 107.2815934}, {"type": "node", "id": 5437423451, "lat": 10.4504891, "lon": 107.2820581}, {"type": "node", "id": 5437423452, "lat": 10.4501014, "lon": 107.282166}, {"type": "node", "id": 5449809624, "lat": 10.552495, "lon": 107.4869995, "tags": {"internet_access": "wlan", "name": "h\u1ed3 c\u00f4c", "tourism": "hotel"}}, {"type": "node", "id": 5475657672, "lat": 10.4891267, "lon": 107.2691148}, {"type": "node", "id": 5475657673, "lat": 10.4891162, "lon": 107.2690901}, {"type": "node", "id": 5475657674, "lat": 10.4890888, "lon": 107.2691021}, {"type": "node", "id": 5475657675, "lat": 10.4890676, "lon": 107.2690519}, {"type": "node", "id": 5475657676, "lat": 10.4891004, "lon": 107.2690375}, {"type": "node", "id": 5475657677, "lat": 10.489089, "lon": 107.2690107}, {"type": "node", "id": 5475657678, "lat": 10.4892229, "lon": 107.268952}, {"type": "node", "id": 5475657679, "lat": 10.489266, "lon": 107.2690537}, {"type": "node", "id": 5475657769, "lat": 10.4881495, "lon": 107.2643334}, {"type": "node", "id": 5475657770, "lat": 10.4882207, "lon": 107.2648846}, {"type": "node", "id": 5475657771, "lat": 10.4886123, "lon": 107.2648805}, {"type": "node", "id": 5475657772, "lat": 10.4886519, "lon": 107.2643803}, {"type": "node", "id": 5475657973, "lat": 10.4829907, "lon": 107.2492975}, {"type": "node", "id": 5475658214, "lat": 10.4797433, "lon": 107.2221845}, {"type": "node", "id": 5475658215, "lat": 10.4804082, "lon": 107.2226112}, {"type": "node", "id": 5483899121, "lat": 10.5451666, "lon": 107.4258927, "tags": {"amenity": "restaurant", "name": "Qu\u00e1n 55B"}}, {"type": "node", "id": 5495142722, "lat": 10.3971096, "lon": 107.2680007, "tags": {"internet_access": "wlan", "name": "Thuy Duong Hotel", "name:en": "Thuy Duong Beach Resort", "tourism": "hotel"}}, {"type": "node", "id": 5495142723, "lat": 10.3959218, "lon": 107.2684033, "tags": {"name:en": "Thuy Duong Beach Resort", "tourism": "hotel"}}, {"type": "node", "id": 6029209287, "lat": 10.4877514, "lon": 107.2641262, "tags": {"addr:housenumber": "154", "addr:street": "Qu\u1ed1c l\u1ed9 55", "amenity": "restaurant", "cuisine": "breakfast;grill", "internet_access": "wlan", "name": "C\u01a1m T\u1ea5m \u0110\u1ea5t \u0110\u1ecf", "name:en": "Broken rice Dat Do", "phone": "0909404904"}}, {"type": "node", "id": 6112086285, "lat": 10.448162, "lon": 107.2650364, "tags": {"name:en": "\u0111\u1ea5t", "tourism": "attraction"}}, {"type": "node", "id": 6170769886, "lat": 10.5331209, "lon": 107.4047102, "tags": {"amenity": "cafe", "name:en": "MILANO Coffee"}}, {"type": "node", "id": 6262953835, "lat": 10.4723828, "lon": 107.3956558, "tags": {"name": "Coastar", "tourism": "hotel"}}, {"type": "node", "id": 6419014586, "lat": 10.5178339, "lon": 107.3519358, "tags": {"amenity": "cafe", "name": "Gi\u1ea3i kh\u00e1t Kim Ph\u01b0\u1ee3ng", "phone": "0938775872"}}, {"type": "node", "id": 6419016887, "lat": 10.5177303, "lon": 107.3520168, "tags": {"amenity": "cafe", "name": "Qu\u00e1n gi\u1ea3i kh\u00e1t"}}, {"type": "node", "id": 6419906586, "lat": 10.5155494, "lon": 107.3474261, "tags": {"amenity": "cafe", "name": "Qu\u00e1n gi\u1ea3i kh\u00e1t"}}, {"type": "node", "id": 6419996989, "lat": 10.516411, "lon": 107.3492116, "tags": {"amenity": "fast_food", "name": "Nh\u00e0 h\u00e0ng Gia M\u1eabn qu\u00e1n", "phone": "01223786008"}}, {"type": "node", "id": 6419996990, "lat": 10.516356, "lon": 107.3493801, "tags": {"amenity": "cafe", "name": "Qu\u00e1n Cafe v\u00f5ng"}}, {"type": "node", "id": 6419997086, "lat": 10.5166173, "lon": 107.3496892, "tags": {"amenity": "cafe", "name": "Gi\u1ea3i kh\u00e1t n\u01b0\u1edbc m\u00eda Cafe v\u00f5ng"}}, {"type": "node", "id": 6434915289, "lat": 10.5429134, "lon": 107.409739, "tags": {"amenity": "cafe", "name": "ORI Milk Tea & Coffee"}}, {"type": "node", "id": 6434915291, "lat": 10.5411285, "lon": 107.4064436, "tags": {"addr:housenumber": "39", "amenity": "cafe", "name": "Guitar Tr\u1ecbnh"}}, {"type": "node", "id": 6434916287, "lat": 10.5413251, "lon": 107.4067128, "tags": {"amenity": "cafe", "name": "C\u00e0 ph\u00ea s\u00e2n v\u01b0\u1eddn Nh\u1ea1c Tr\u1ecbnh"}}, {"type": "node", "id": 6434916685, "lat": 10.5420197, "lon": 107.4121098, "tags": {"amenity": "restaurant", "name": "\u0110i\u1ec3m t\u00e2m m\u00ec Qu\u1ea3ng b\u00fan gi\u00f2", "opening_hours": "Mo-Su 06:00-10:00"}}, {"type": "node", "id": 6454116047, "lat": 10.4801061, "lon": 107.223171}, {"type": "node", "id": 6454116048, "lat": 10.4794089, "lon": 107.2227516}, {"type": "node", "id": 6488159889, "lat": 10.3893013, "lon": 107.2318116}, {"type": "node", "id": 6488159890, "lat": 10.38899, "lon": 107.2319873}, {"type": "node", "id": 6488159891, "lat": 10.3891219, "lon": 107.2322528}, {"type": "node", "id": 6488159892, "lat": 10.3891628, "lon": 107.2322944}, {"type": "node", "id": 6488159893, "lat": 10.3894846, "lon": 107.23212}, {"type": "node", "id": 6488159911, "lat": 10.3898717, "lon": 107.2324239}, {"type": "node", "id": 6488159912, "lat": 10.3898984, "lon": 107.2324724}, {"type": "node", "id": 6488159913, "lat": 10.3898302, "lon": 107.2325113}, {"type": "node", "id": 6488159914, "lat": 10.3898084, "lon": 107.2324718}, {"type": "node", "id": 6488159915, "lat": 10.3897409, "lon": 107.2325102}, {"type": "node", "id": 6488159916, "lat": 10.3895248, "lon": 107.2321176}, {"type": "node", "id": 6488159917, "lat": 10.3896888, "lon": 107.2320242}, {"type": "node", "id": 6488159918, "lat": 10.3899, "lon": 107.2324078}, {"type": "node", "id": 6488159919, "lat": 10.3895145, "lon": 107.2329115}, {"type": "node", "id": 6488159920, "lat": 10.3894222, "lon": 107.2327441}, {"type": "node", "id": 6488159921, "lat": 10.3899263, "lon": 107.2324565}, {"type": "node", "id": 6488159922, "lat": 10.3900187, "lon": 107.2326239}, {"type": "node", "id": 6495181157, "lat": 10.3865475, "lon": 107.2354176}, {"type": "node", "id": 6495181158, "lat": 10.386564, "lon": 107.2354337}, {"type": "node", "id": 6495181159, "lat": 10.3863516, "lon": 107.2356784}, {"type": "node", "id": 6495181160, "lat": 10.3863635, "lon": 107.2356905}, {"type": "node", "id": 6495181161, "lat": 10.386312, "lon": 107.2357522}, {"type": "node", "id": 6495181162, "lat": 10.3862975, "lon": 107.2357468}, {"type": "node", "id": 6495181163, "lat": 10.3862276, "lon": 107.235834}, {"type": "node", "id": 6495181164, "lat": 10.3861161, "lon": 107.2357455}, {"type": "node", "id": 6495181165, "lat": 10.3864525, "lon": 107.2353633}, {"type": "node", "id": 6495181166, "lat": 10.3864716, "lon": 107.2353438}, {"type": "node", "id": 6495181167, "lat": 10.3865059, "lon": 107.2353304}, {"type": "node", "id": 6495181168, "lat": 10.3865791, "lon": 107.2353827}, {"type": "node", "id": 6860390803, "lat": 10.4773069, "lon": 107.2702315}, {"type": "node", "id": 6860390804, "lat": 10.476401, "lon": 107.2703999}, {"type": "node", "id": 6860390805, "lat": 10.4763891, "lon": 107.2703321}, {"type": "node", "id": 6860390806, "lat": 10.4764234, "lon": 107.2702758}, {"type": "node", "id": 6860390807, "lat": 10.4764109, "lon": 107.270141}, {"type": "node", "id": 6860390808, "lat": 10.4763627, "lon": 107.2701001}, {"type": "node", "id": 6860390809, "lat": 10.4763495, "lon": 107.2699392}, {"type": "node", "id": 6860390810, "lat": 10.4772212, "lon": 107.2698306}, {"type": "node", "id": 6860391110, "lat": 10.4890053, "lon": 107.268995}, {"type": "node", "id": 6860391111, "lat": 10.4889341, "lon": 107.2692472}, {"type": "node", "id": 6860391112, "lat": 10.4889371, "lon": 107.2690218}, {"type": "node", "id": 6860391117, "lat": 10.4893963, "lon": 107.2688415}, {"type": "node", "id": 6860391118, "lat": 10.4894668, "lon": 107.2690192}, {"type": "node", "id": 6875316270, "lat": 10.4544575, "lon": 107.2847477}, {"type": "node", "id": 6875316271, "lat": 10.4539181, "lon": 107.2849904}, {"type": "node", "id": 6875316272, "lat": 10.4541859, "lon": 107.2855751}, {"type": "node", "id": 6875316273, "lat": 10.4547385, "lon": 107.2853297}, {"type": "node", "id": 6875316282, "lat": 10.4505366, "lon": 107.2817161}, {"type": "node", "id": 6875316283, "lat": 10.4504192, "lon": 107.281764}, {"type": "node", "id": 6881739876, "lat": 10.4703614, "lon": 107.2727559}, {"type": "node", "id": 6881739877, "lat": 10.4703867, "lon": 107.2727143}, {"type": "node", "id": 6881739878, "lat": 10.4704201, "lon": 107.2726792}, {"type": "node", "id": 6881739879, "lat": 10.4704601, "lon": 107.2726523}, {"type": "node", "id": 6881739880, "lat": 10.470505, "lon": 107.2726347}, {"type": "node", "id": 6881739881, "lat": 10.4705525, "lon": 107.2726273}, {"type": "node", "id": 6881739882, "lat": 10.4706004, "lon": 107.2726305}, {"type": "node", "id": 6881739883, "lat": 10.4706466, "lon": 107.2726441}, {"type": "node", "id": 6881739884, "lat": 10.4706888, "lon": 107.2726674}, {"type": "node", "id": 6881739885, "lat": 10.4707251, "lon": 107.2726994}, {"type": "node", "id": 6881739886, "lat": 10.4707537, "lon": 107.2727387}, {"type": "node", "id": 6881739887, "lat": 10.4707734, "lon": 107.2727832}, {"type": "node", "id": 6881739888, "lat": 10.4707832, "lon": 107.2728311}, {"type": "node", "id": 6881739889, "lat": 10.4707827, "lon": 107.2728799}, {"type": "node", "id": 6881739890, "lat": 10.4707719, "lon": 107.2729275}, {"type": "node", "id": 6881739891, "lat": 10.4707512, "lon": 107.2729716}, {"type": "node", "id": 6881739892, "lat": 10.4707217, "lon": 107.2730102}, {"type": "node", "id": 6881739893, "lat": 10.4706848, "lon": 107.2730414}, {"type": "node", "id": 6881739894, "lat": 10.4706421, "lon": 107.2730639}, {"type": "node", "id": 6881739895, "lat": 10.4705956, "lon": 107.2730764}, {"type": "node", "id": 6881739896, "lat": 10.4705476, "lon": 107.2730785}, {"type": "node", "id": 6881739897, "lat": 10.4705003, "lon": 107.2730701}, {"type": "node", "id": 6881739898, "lat": 10.4704559, "lon": 107.2730515}, {"type": "node", "id": 6881739899, "lat": 10.4704164, "lon": 107.2730237}, {"type": "node", "id": 6881739900, "lat": 10.4703837, "lon": 107.2729878}, {"type": "node", "id": 6881739901, "lat": 10.4703594, "lon": 107.2729457}, {"type": "node", "id": 6881739902, "lat": 10.4703446, "lon": 107.2728992}, {"type": "node", "id": 6881739903, "lat": 10.4703399, "lon": 107.2728506}, {"type": "node", "id": 6881739904, "lat": 10.4703456, "lon": 107.2728021}, {"type": "node", "id": 6892187773, "lat": 10.3821964, "lon": 107.2575259, "tags": {"name": "Khu du l\u1ecbch \u0110\u00e8o N\u01b0\u1edbc Ng\u1ecdt", "tourism": "attraction"}}, {"type": "node", "id": 6892187910, "lat": 10.4065746, "lon": 107.278195, "tags": {"name": "Tropicana Beach Resort", "tourism": "hotel"}}, {"type": "node", "id": 6892187911, "lat": 10.4100358, "lon": 107.2807538, "tags": {"name": "Melody of the Sea", "tourism": "hotel"}}, {"type": "node", "id": 6892188009, "lat": 10.4153133, "lon": 107.2848462}, {"type": "node", "id": 6892188010, "lat": 10.4151945, "lon": 107.2849812}, {"type": "node", "id": 6892188011, "lat": 10.4156817, "lon": 107.2854243}, {"type": "node", "id": 6892188012, "lat": 10.4158005, "lon": 107.2852893}, {"type": "node", "id": 6895853386, "lat": 10.3856763, "lon": 107.2596918, "tags": {"amenity": "restaurant", "name": "Maison Long Hai"}}, {"type": "node", "id": 6899807714, "lat": 10.419002, "lon": 107.2882191}, {"type": "node", "id": 6899807715, "lat": 10.4187411, "lon": 107.2884874}, {"type": "node", "id": 6899807716, "lat": 10.4186622, "lon": 107.2884081}, {"type": "node", "id": 6899807717, "lat": 10.4187745, "lon": 107.2882927}, {"type": "node", "id": 6899807718, "lat": 10.4187022, "lon": 107.28822}, {"type": "node", "id": 6899807719, "lat": 10.4186912, "lon": 107.2882313}, {"type": "node", "id": 6899807720, "lat": 10.4185744, "lon": 107.2881138}, {"type": "node", "id": 6899807721, "lat": 10.418734, "lon": 107.2879497}, {"type": "node", "id": 6899807874, "lat": 10.400631, "lon": 107.2725195, "tags": {"amenity": "cafe", "name": "Elvis Coffee"}}, {"type": "node", "id": 6900182551, "lat": 10.4376933, "lon": 107.2728172}, {"type": "node", "id": 6900182552, "lat": 10.4376471, "lon": 107.2728078}, {"type": "node", "id": 6900182553, "lat": 10.4375179, "lon": 107.2729218}, {"type": "node", "id": 6900182554, "lat": 10.4375245, "lon": 107.2729607}, {"type": "node", "id": 6900182555, "lat": 10.4373899, "lon": 107.2730573}, {"type": "node", "id": 6900182556, "lat": 10.4369099, "lon": 107.2725208}, {"type": "node", "id": 6900182557, "lat": 10.4373345, "lon": 107.272156}, {"type": "node", "id": 6900182558, "lat": 10.4378173, "lon": 107.2726992}, {"type": "node", "id": 6900183152, "lat": 10.4278818, "lon": 107.2895401}, {"type": "node", "id": 6900183153, "lat": 10.4279781, "lon": 107.2896219}, {"type": "node", "id": 6900183154, "lat": 10.4279708, "lon": 107.2896675}, {"type": "node", "id": 6900183155, "lat": 10.4279926, "lon": 107.2896856}, {"type": "node", "id": 6900183156, "lat": 10.4280269, "lon": 107.2896722}, {"type": "node", "id": 6900183157, "lat": 10.4280704, "lon": 107.2897131}, {"type": "node", "id": 6900183158, "lat": 10.4280671, "lon": 107.2897587}, {"type": "node", "id": 6900183159, "lat": 10.4280941, "lon": 107.2897922}, {"type": "node", "id": 6900183160, "lat": 10.4281588, "lon": 107.2897835}, {"type": "node", "id": 6900183161, "lat": 10.4281924, "lon": 107.2898103}, {"type": "node", "id": 6900183162, "lat": 10.4276404, "lon": 107.2904956}, {"type": "node", "id": 6900183163, "lat": 10.4273146, "lon": 107.2902006}, {"type": "node", "id": 6900183172, "lat": 10.4282036, "lon": 107.2898827}, {"type": "node", "id": 6905629174, "lat": 10.3841166, "lon": 107.2415079}, {"type": "node", "id": 6905629175, "lat": 10.3835063, "lon": 107.2401962}, {"type": "node", "id": 6905629176, "lat": 10.3833718, "lon": 107.2402605}, {"type": "node", "id": 6905629177, "lat": 10.3829945, "lon": 107.2405878}, {"type": "node", "id": 6905629178, "lat": 10.3828362, "lon": 107.2408506}, {"type": "node", "id": 6905629179, "lat": 10.3827887, "lon": 107.2409579}, {"type": "node", "id": 6905629180, "lat": 10.3827439, "lon": 107.2412154}, {"type": "node", "id": 6905629181, "lat": 10.3827465, "lon": 107.241312}, {"type": "node", "id": 6905629182, "lat": 10.3830763, "lon": 107.2414112}, {"type": "node", "id": 6905629183, "lat": 10.3833032, "lon": 107.2420335}, {"type": "node", "id": 6908959419, "lat": 10.5198831, "lon": 107.355052}, {"type": "node", "id": 6908959420, "lat": 10.5195388, "lon": 107.3552739}, {"type": "node", "id": 6908959421, "lat": 10.5194424, "lon": 107.3551191}, {"type": "node", "id": 6908959422, "lat": 10.5197867, "lon": 107.3548973}, {"type": "node", "id": 6917371200, "lat": 10.4546211, "lon": 107.3325406, "tags": {"amenity": "restaurant", "name": "Ph\u01b0\u01a1ng Trang"}}, {"type": "node", "id": 6919467700, "lat": 10.4837318, "lon": 107.4550607}, {"type": "node", "id": 6919467701, "lat": 10.4834458, "lon": 107.4548001}, {"type": "node", "id": 6919467702, "lat": 10.4835582, "lon": 107.4546725}, {"type": "node", "id": 6919467703, "lat": 10.4837436, "lon": 107.4548415}, {"type": "node", "id": 6919467704, "lat": 10.4839334, "lon": 107.454626}, {"type": "node", "id": 6919467705, "lat": 10.484034, "lon": 107.4547177}, {"type": "node", "id": 6919523004, "lat": 10.4843504, "lon": 107.4550226}, {"type": "node", "id": 6919523005, "lat": 10.4843487, "lon": 107.4549981}, {"type": "node", "id": 6919523006, "lat": 10.4845367, "lon": 107.4549843}, {"type": "node", "id": 6919523007, "lat": 10.4845384, "lon": 107.4550073}, {"type": "node", "id": 6919523008, "lat": 10.4847033, "lon": 107.4549952}, {"type": "node", "id": 6919523009, "lat": 10.4847016, "lon": 107.4549712}, {"type": "node", "id": 6919523010, "lat": 10.4847509, "lon": 107.4549676}, {"type": "node", "id": 6919523011, "lat": 10.4847488, "lon": 107.4549383}, {"type": "node", "id": 6919523012, "lat": 10.4848482, "lon": 107.454931}, {"type": "node", "id": 6919523013, "lat": 10.4848498, "lon": 107.4549533}, {"type": "node", "id": 6919523014, "lat": 10.4848907, "lon": 107.4549503}, {"type": "node", "id": 6919523015, "lat": 10.4848929, "lon": 107.4549798}, {"type": "node", "id": 6919523016, "lat": 10.4851064, "lon": 107.455027}, {"type": "node", "id": 6919523017, "lat": 10.4851394, "lon": 107.4550245}, {"type": "node", "id": 6919523018, "lat": 10.4851461, "lon": 107.4551186}, {"type": "node", "id": 6919523019, "lat": 10.4851186, "lon": 107.4551206}, {"type": "node", "id": 6919523020, "lat": 10.4851225, "lon": 107.4551764}, {"type": "node", "id": 6919523021, "lat": 10.4849022, "lon": 107.4551926}, {"type": "node", "id": 6919523022, "lat": 10.484904, "lon": 107.455217}, {"type": "node", "id": 6919523023, "lat": 10.484425, "lon": 107.4552523}, {"type": "node", "id": 6919523024, "lat": 10.4844233, "lon": 107.455229}, {"type": "node", "id": 6919523025, "lat": 10.4841248, "lon": 107.455251}, {"type": "node", "id": 6919523026, "lat": 10.4841214, "lon": 107.455203}, {"type": "node", "id": 6919523027, "lat": 10.4841109, "lon": 107.4552038}, {"type": "node", "id": 6919523028, "lat": 10.4841037, "lon": 107.4551027}, {"type": "node", "id": 6919523029, "lat": 10.4841274, "lon": 107.455101}, {"type": "node", "id": 6919523030, "lat": 10.484123, "lon": 107.4550394}, {"type": "node", "id": 6919523031, "lat": 10.4851019, "lon": 107.4549644}, {"type": "node", "id": 6920066792, "lat": 10.4705846, "lon": 107.4141126, "tags": {"amenity": "cafe", "name": "Cafe V\u00f5ng \u0110\u1ea7m Sen"}}, {"type": "node", "id": 6920066813, "lat": 10.4692519, "lon": 107.4267505, "tags": {"amenity": "restaurant", "name": "L\u00ea Minh"}}, {"type": "node", "id": 6920066871, "lat": 10.4727335, "lon": 107.4292704}, {"type": "node", "id": 6920066872, "lat": 10.4726544, "lon": 107.4281171}, {"type": "node", "id": 6920066873, "lat": 10.4725436, "lon": 107.4274412}, {"type": "node", "id": 6920066874, "lat": 10.4695394, "lon": 107.4274653}, {"type": "node", "id": 6920066875, "lat": 10.4695737, "lon": 107.4283719}, {"type": "node", "id": 6920066876, "lat": 10.4694946, "lon": 107.4283826}, {"type": "node", "id": 6920066877, "lat": 10.4695302, "lon": 107.4288614}, {"type": "node", "id": 6920066878, "lat": 10.4695711, "lon": 107.4288547}, {"type": "node", "id": 6920066879, "lat": 10.4696014, "lon": 107.4292409}, {"type": "node", "id": 6920066880, "lat": 10.469666, "lon": 107.4292369}, {"type": "node", "id": 6920066881, "lat": 10.4697056, "lon": 107.4302226}, {"type": "node", "id": 6920067036, "lat": 10.4739705, "lon": 107.4320117}, {"type": "node", "id": 6920067037, "lat": 10.4729682, "lon": 107.4319848}, {"type": "node", "id": 6920067038, "lat": 10.4729735, "lon": 107.4312928}, {"type": "node", "id": 6920067039, "lat": 10.473923, "lon": 107.4312499}, {"type": "node", "id": 6920067040, "lat": 10.4742923, "lon": 107.4312821}, {"type": "node", "id": 6920067190, "lat": 10.4727375, "lon": 107.4302521}, {"type": "node", "id": 6920067303, "lat": 10.4714352, "lon": 107.4364521, "tags": {"name": "Hoa Lan", "tourism": "hotel"}}, {"type": "node", "id": 6920067310, "lat": 10.4713277, "lon": 107.4364977, "tags": {"name:en": "Hoa Bi\u1ec3n", "tourism": "guest_house"}}, {"type": "node", "id": 6920067367, "lat": 10.4705074, "lon": 107.4357091, "tags": {"amenity": "restaurant", "name": "Bi\u1ec3n H\u1ed3 Tr\u00e0m"}}, {"type": "node", "id": 6920067368, "lat": 10.4706855, "lon": 107.4356635, "tags": {"name": "Bi\u1ec3n H\u1ed3 Tr\u00e0m", "tourism": "hotel"}}, {"type": "node", "id": 6920067373, "lat": 10.4709512, "lon": 107.4361684, "tags": {"name": "Bi\u1ec3n H\u1ed3 Tr\u00e0m", "tourism": "guest_house"}}, {"type": "node", "id": 6920067374, "lat": 10.4710066, "lon": 107.4361892, "tags": {"amenity": "restaurant", "name": "K\u1ef3"}}, {"type": "node", "id": 6920067375, "lat": 10.4705272, "lon": 107.4361624, "tags": {"amenity": "restaurant", "name": "Thanh Thanh"}}, {"type": "node", "id": 6927121034, "lat": 10.4714306, "lon": 107.4015069}, {"type": "node", "id": 6927121035, "lat": 10.4687587, "lon": 107.4013486}, {"type": "node", "id": 6927121036, "lat": 10.4687957, "lon": 107.4008444}, {"type": "node", "id": 6927121037, "lat": 10.4689354, "lon": 107.3986664}, {"type": "node", "id": 6927121038, "lat": 10.4703835, "lon": 107.3989105}, {"type": "node", "id": 6927121039, "lat": 10.4717022, "lon": 107.3989427}, {"type": "node", "id": 6927121130, "lat": 10.5132024, "lon": 107.403025}, {"type": "node", "id": 6927121131, "lat": 10.513358, "lon": 107.4023236}, {"type": "node", "id": 6927121132, "lat": 10.5137219, "lon": 107.402333}, {"type": "node", "id": 6927121133, "lat": 10.5141821, "lon": 107.4021775}, {"type": "node", "id": 6927121134, "lat": 10.5139843, "lon": 107.4033523}, {"type": "node", "id": 6927121135, "lat": 10.5138327, "lon": 107.4033335}, {"type": "node", "id": 6927121136, "lat": 10.5137865, "lon": 107.4032812}, {"type": "node", "id": 6927121137, "lat": 10.5134661, "lon": 107.4032691}, {"type": "node", "id": 6927121138, "lat": 10.5134252, "lon": 107.403304}, {"type": "node", "id": 6927121139, "lat": 10.5131905, "lon": 107.4032946}, {"type": "node", "id": 6934915291, "lat": 10.4866026, "lon": 107.2466871}, {"type": "node", "id": 6934915292, "lat": 10.4865403, "lon": 107.2466774}, {"type": "node", "id": 6934915293, "lat": 10.4865327, "lon": 107.2467203}, {"type": "node", "id": 6934915294, "lat": 10.4863959, "lon": 107.2467042}, {"type": "node", "id": 6934915295, "lat": 10.4864111, "lon": 107.246613}, {"type": "node", "id": 6934915296, "lat": 10.4864197, "lon": 107.2466144}, {"type": "node", "id": 6934915297, "lat": 10.4864289, "lon": 107.2465497}, {"type": "node", "id": 6934915298, "lat": 10.4866145, "lon": 107.2465741}, {"type": "node", "id": 6934915373, "lat": 10.4834325, "lon": 107.249883}, {"type": "node", "id": 6934915374, "lat": 10.4833975, "lon": 107.2499098}, {"type": "node", "id": 6934915375, "lat": 10.4828996, "lon": 107.2498787}, {"type": "node", "id": 6934915376, "lat": 10.4831232, "lon": 107.2493063}, {"type": "node", "id": 6934915377, "lat": 10.4831226, "lon": 107.2493546}, {"type": "node", "id": 6934915378, "lat": 10.4833454, "lon": 107.2493707}, {"type": "node", "id": 6934915379, "lat": 10.4833513, "lon": 107.2493217}, {"type": "node", "id": 6934915380, "lat": 10.4835129, "lon": 107.2493358}, {"type": "node", "id": 6937328096, "lat": 10.4902185, "lon": 107.2248606}, {"type": "node", "id": 6937328097, "lat": 10.4893693, "lon": 107.225503}, {"type": "node", "id": 6937328098, "lat": 10.4892506, "lon": 107.2254923}, {"type": "node", "id": 6937328099, "lat": 10.4887824, "lon": 107.2248526}, {"type": "node", "id": 6939272380, "lat": 10.5355583, "lon": 107.2339037}, {"type": "node", "id": 6939272381, "lat": 10.5354453, "lon": 107.234562}, {"type": "node", "id": 6939272382, "lat": 10.5352565, "lon": 107.2343375}, {"type": "node", "id": 6939272383, "lat": 10.5354715, "lon": 107.2346435}, {"type": "node", "id": 6939272418, "lat": 10.5352076, "lon": 107.2342926}, {"type": "node", "id": 6939272419, "lat": 10.5348832, "lon": 107.2341719}, {"type": "node", "id": 6939272420, "lat": 10.5350705, "lon": 107.2337213}, {"type": "node", "id": 6939272421, "lat": 10.5354818, "lon": 107.2338581}, {"type": "node", "id": 6939272493, "lat": 10.5348099, "lon": 107.2351839}, {"type": "node", "id": 6939272494, "lat": 10.5345613, "lon": 107.2347457}, {"type": "node", "id": 6939272495, "lat": 10.5355361, "lon": 107.2347575}, {"type": "node", "id": 6939272533, "lat": 10.5353935, "lon": 107.23402}, {"type": "node", "id": 6939272534, "lat": 10.5352373, "lon": 107.2339716}, {"type": "node", "id": 6939272535, "lat": 10.5351914, "lon": 107.2341249}, {"type": "node", "id": 6939272536, "lat": 10.5350978, "lon": 107.2340959}, {"type": "node", "id": 6939272537, "lat": 10.5351789, "lon": 107.233825}, {"type": "node", "id": 6939272538, "lat": 10.5354288, "lon": 107.2339024}, {"type": "node", "id": 6939272618, "lat": 10.5271356, "lon": 107.2278596}, {"type": "node", "id": 6939272810, "lat": 10.5275222, "lon": 107.2274911}, {"type": "node", "id": 6939272866, "lat": 10.5270697, "lon": 107.2279224}, {"type": "node", "id": 6939272867, "lat": 10.5268574, "lon": 107.2276072}, {"type": "node", "id": 6939272868, "lat": 10.52681, "lon": 107.2274999}, {"type": "node", "id": 6939272869, "lat": 10.5268957, "lon": 107.2268843}, {"type": "node", "id": 6939272870, "lat": 10.5269128, "lon": 107.2268736}, {"type": "node", "id": 6939272871, "lat": 10.5269366, "lon": 107.2268776}, {"type": "node", "id": 6939272872, "lat": 10.5277508, "lon": 107.2272733}, {"type": "node", "id": 6939273101, "lat": 10.4895526, "lon": 107.2307146}, {"type": "node", "id": 6939273102, "lat": 10.4895684, "lon": 107.2305509}, {"type": "node", "id": 6939273103, "lat": 10.4891939, "lon": 107.2306153}, {"type": "node", "id": 6939273104, "lat": 10.4891016, "lon": 107.2303873}, {"type": "node", "id": 6939273105, "lat": 10.4893548, "lon": 107.2301057}, {"type": "node", "id": 6939273106, "lat": 10.4899112, "lon": 107.2299528}, {"type": "node", "id": 6939273107, "lat": 10.4899719, "lon": 107.2293735}, {"type": "node", "id": 6939273322, "lat": 10.4894062, "lon": 107.2270728, "tags": {"amenity": "cafe", "name": "\u0102n v\u1eb7t B\u00e0u Th\u00e0nh"}}, {"type": "node", "id": 6939273335, "lat": 10.4866593, "lon": 107.2285353}, {"type": "node", "id": 6939273336, "lat": 10.4867477, "lon": 107.2284199}, {"type": "node", "id": 6939273337, "lat": 10.486658, "lon": 107.2279988}, {"type": "node", "id": 6939273338, "lat": 10.4865499, "lon": 107.2279224}, {"type": "node", "id": 6939273339, "lat": 10.4884897, "lon": 107.2251141}, {"type": "node", "id": 6939273340, "lat": 10.4885794, "lon": 107.2251222}, {"type": "node", "id": 6939273341, "lat": 10.4887587, "lon": 107.2249693}, {"type": "node", "id": 6939273342, "lat": 10.4902014, "lon": 107.2256881}, {"type": "node", "id": 6939273343, "lat": 10.4901855, "lon": 107.2292608}, {"type": "node", "id": 6939273344, "lat": 10.4887613, "lon": 107.2308674}, {"type": "node", "id": 6939273345, "lat": 10.4886743, "lon": 107.2308084}, {"type": "node", "id": 6939273346, "lat": 10.4883077, "lon": 107.2308353}, {"type": "node", "id": 6939273347, "lat": 10.488226, "lon": 107.2309774}, {"type": "node", "id": 6939273404, "lat": 10.4868347, "lon": 107.2263922}, {"type": "node", "id": 6939273405, "lat": 10.4866499, "lon": 107.2265364}, {"type": "node", "id": 6939273413, "lat": 10.486417, "lon": 107.2267168}, {"type": "node", "id": 6939273414, "lat": 10.4864513, "lon": 107.2268536}, {"type": "node", "id": 6939273415, "lat": 10.4863221, "lon": 107.2270306}, {"type": "node", "id": 6965705832, "lat": 10.5402627, "lon": 107.3979905, "tags": {"amenity": "restaurant", "name": "Lakeside Palace"}}, {"type": "node", "id": 7004173867, "lat": 10.5443367, "lon": 107.4154584}, {"type": "node", "id": 7004173868, "lat": 10.5441007, "lon": 107.4153337}, {"type": "node", "id": 7004173869, "lat": 10.5439109, "lon": 107.4152653}, {"type": "node", "id": 7004173870, "lat": 10.5438107, "lon": 107.4154879}, {"type": "node", "id": 7004173871, "lat": 10.5437553, "lon": 107.4154598}, {"type": "node", "id": 7004173872, "lat": 10.5436894, "lon": 107.4156019}, {"type": "node", "id": 7004173873, "lat": 10.5438014, "lon": 107.4156703}, {"type": "node", "id": 7004173874, "lat": 10.5437803, "lon": 107.4157105}, {"type": "node", "id": 7004173875, "lat": 10.5440651, "lon": 107.4158742}, {"type": "node", "id": 7004173876, "lat": 10.5440823, "lon": 107.4158393}, {"type": "node", "id": 7004173877, "lat": 10.5441271, "lon": 107.4158621}, {"type": "node", "id": 7004174002, "lat": 10.536712, "lon": 107.4038243}, {"type": "node", "id": 7004174003, "lat": 10.5366447, "lon": 107.4034659}, {"type": "node", "id": 7004174004, "lat": 10.5366553, "lon": 107.4034622}, {"type": "node", "id": 7004174005, "lat": 10.537244, "lon": 107.4033502}, {"type": "node", "id": 7004174006, "lat": 10.5372723, "lon": 107.4033489}, {"type": "node", "id": 7004174007, "lat": 10.5373086, "lon": 107.4033509}, {"type": "node", "id": 7004174008, "lat": 10.5373706, "lon": 107.403365}, {"type": "node", "id": 7004174009, "lat": 10.5374279, "lon": 107.4033858}, {"type": "node", "id": 7004174010, "lat": 10.5374477, "lon": 107.4033992}, {"type": "node", "id": 7004174011, "lat": 10.5374859, "lon": 107.4034421}, {"type": "node", "id": 7004174013, "lat": 10.5377615, "lon": 107.4038887}, {"type": "node", "id": 7004174026, "lat": 10.5367792, "lon": 107.4041945}, {"type": "node", "id": 7081653685, "lat": 10.5430185, "lon": 107.2348897, "tags": {"name": "nh\u00e0 kh\u00e1ch 1 long ph\u01b0\u1edbc", "tourism": "guest_house"}}, {"type": "node", "id": 7085170885, "lat": 10.5431662, "lon": 107.2348752, "tags": {"name": "nh\u00e0 kh\u00e1ch 1 long ph\u01b0\u1edbc", "tourism": "guest_house"}}, {"type": "node", "id": 7085330885, "lat": 10.5270916, "lon": 107.2410029, "tags": {"name": "Nha Dat Long Phuoc 4", "tourism": "guest_house"}}, {"type": "node", "id": 7237200296, "lat": 10.5012497, "lon": 107.4823393, "tags": {"name": "Ho Coc Beach resort - reception", "tourism": "hotel"}}, {"type": "node", "id": 7237204554, "lat": 10.5006897, "lon": 107.4803963}, {"type": "node", "id": 7237204555, "lat": 10.5006977, "lon": 107.480559}, {"type": "node", "id": 7237204556, "lat": 10.5005858, "lon": 107.4805712}, {"type": "node", "id": 7237204557, "lat": 10.5005978, "lon": 107.4807135}, {"type": "node", "id": 7237204558, "lat": 10.5006297, "lon": 107.4807622}, {"type": "node", "id": 7237204559, "lat": 10.5005978, "lon": 107.4807704}, {"type": "node", "id": 7237204560, "lat": 10.5005978, "lon": 107.4809208}, {"type": "node", "id": 7237204561, "lat": 10.5007137, "lon": 107.4809249}, {"type": "node", "id": 7237204562, "lat": 10.5007217, "lon": 107.481055}, {"type": "node", "id": 7237204563, "lat": 10.5004379, "lon": 107.4810915}, {"type": "node", "id": 7237204564, "lat": 10.5003899, "lon": 107.4804126}, {"type": "node", "id": 7237206563, "lat": 10.5006291, "lon": 107.4807145}, {"type": "node", "id": 7624875013, "lat": 10.4718669, "lon": 107.3713614, "tags": {"name": "H\u1ed3 Tr\u00e0m Complex", "phone:mobile": "0904666807"}}, {"type": "node", "id": 7624875014, "lat": 10.4715768, "lon": 107.3733946}, {"type": "node", "id": 7624875015, "lat": 10.4713499, "lon": 107.3737754}, {"type": "node", "id": 7624875016, "lat": 10.4711073, "lon": 107.3740436}, {"type": "node", "id": 7624875017, "lat": 10.4704268, "lon": 107.3743333}, {"type": "node", "id": 7624875018, "lat": 10.4702053, "lon": 107.3730781}, {"type": "node", "id": 7624875019, "lat": 10.4699098, "lon": 107.371812}, {"type": "node", "id": 7624875020, "lat": 10.4695916, "lon": 107.3709949}, {"type": "node", "id": 7624875021, "lat": 10.4691879, "lon": 107.3702092}, {"type": "node", "id": 7624875022, "lat": 10.4699745, "lon": 107.3696641}, {"type": "node", "id": 7791181345, "lat": 10.4281344, "lon": 107.2899579}, {"type": "node", "id": 7794642693, "lat": 10.4162009, "lon": 107.2157995}, {"type": "node", "id": 7794642694, "lat": 10.4162108, "lon": 107.2158283}, {"type": "node", "id": 7794642695, "lat": 10.4162114, "lon": 107.2158612}, {"type": "node", "id": 7794642696, "lat": 10.4162035, "lon": 107.2158766}, {"type": "node", "id": 7794642697, "lat": 10.4161877, "lon": 107.2158974}, {"type": "node", "id": 7794642698, "lat": 10.4161732, "lon": 107.2159094}, {"type": "node", "id": 7794642699, "lat": 10.4160551, "lon": 107.2158933}, {"type": "node", "id": 7794642700, "lat": 10.4155882, "lon": 107.2157787}, {"type": "node", "id": 7794642701, "lat": 10.415548, "lon": 107.2157639}, {"type": "node", "id": 7794642702, "lat": 10.4155288, "lon": 107.2157438}, {"type": "node", "id": 7794642703, "lat": 10.4155196, "lon": 107.2157224}, {"type": "node", "id": 7794642704, "lat": 10.4155084, "lon": 107.2156721}, {"type": "node", "id": 7794642705, "lat": 10.4154602, "lon": 107.2147829}, {"type": "node", "id": 7794642706, "lat": 10.4154609, "lon": 107.2147527}, {"type": "node", "id": 7794642707, "lat": 10.41548, "lon": 107.214746}, {"type": "node", "id": 7794642708, "lat": 10.4154978, "lon": 107.2147534}, {"type": "node", "id": 7794642709, "lat": 10.4155104, "lon": 107.2147641}, {"type": "node", "id": 7794642710, "lat": 10.4155229, "lon": 107.2147796}, {"type": "node", "id": 7794642711, "lat": 10.4155519, "lon": 107.2148292}, {"type": "node", "id": 7794642712, "lat": 10.415763, "lon": 107.2151557}, {"type": "node", "id": 7794642713, "lat": 10.4161461, "lon": 107.215723}, {"type": "node", "id": 7798497154, "lat": 10.5339656, "lon": 107.3962967, "tags": {"amenity": "restaurant", "name": "Ng\u1ecdc Nguy\u00ean"}}, {"type": "node", "id": 7798497195, "lat": 10.5342263, "lon": 107.3979674, "tags": {"amenity": "restaurant", "name": "Ho\u00e0 Ph\u00e1t"}}, {"type": "node", "id": 7798497196, "lat": 10.5342591, "lon": 107.398062}, {"type": "node", "id": 7798497197, "lat": 10.53425, "lon": 107.3980315}, {"type": "node", "id": 7798497198, "lat": 10.5344472, "lon": 107.3979709}, {"type": "node", "id": 7798497199, "lat": 10.5344702, "lon": 107.3980484}, {"type": "node", "id": 7798497200, "lat": 10.5342166, "lon": 107.3981264}, {"type": "node", "id": 7798497201, "lat": 10.5342026, "lon": 107.3980794}, {"type": "node", "id": 7935166285, "lat": 10.5250987, "lon": 107.2257154, "tags": {"name:en": "Long Phuoc Tunnels", "tourism": "attraction"}}, {"type": "node", "id": 7936068259, "lat": 10.5366435, "lon": 107.3984826}, {"type": "node", "id": 7936068260, "lat": 10.5352999, "lon": 107.3994631}, {"type": "node", "id": 7947048671, "lat": 10.4382644, "lon": 107.2176146, "tags": {"amenity": "cafe", "name": "T&H"}}, {"type": "node", "id": 7981555312, "lat": 10.3980526, "lon": 107.2277306, "tags": {"addr:city": "B\u00e0 R\u1ecba-V\u0169ng T\u00e0u", "addr:district": "huy\u1ec7n Long \u0110i\u1ec1n", "addr:postcode": "84000", "addr:province": "B\u00e0 R\u1ecba-V\u0169ng T\u00e0u", "addr:subdistrict": "Th\u1ecb Tr\u1ea5n Long H\u1ea3i", "amenity": "cafe", "cuisine": "coffee_shop;milktea", "delivery": "yes", "internet_access": "wlan", "internet_access:fee": "no", "name": "1994 Milktea & Coffee", "opening_hours": "Mo-Su 09:00-21:00", "outdoor_seating": "yes"}}, {"type": "node", "id": 8100255917, "lat": 10.5420624, "lon": 107.2698502, "tags": {"amenity": "restaurant", "name": "Qu\u00e1n Long T\u00e2n"}}, {"type": "node", "id": 8144371792, "lat": 10.4148604, "lon": 107.2123548}, {"type": "node", "id": 8144371793, "lat": 10.4145544, "lon": 107.2123502}, {"type": "node", "id": 8144371794, "lat": 10.4145468, "lon": 107.2124395}, {"type": "node", "id": 8144371795, "lat": 10.4145392, "lon": 107.212515}, {"type": "node", "id": 8144371796, "lat": 10.4145332, "lon": 107.212589}, {"type": "node", "id": 8144371797, "lat": 10.4145513, "lon": 107.2126336}, {"type": "node", "id": 8144371798, "lat": 10.4146089, "lon": 107.2126275}, {"type": "node", "id": 8144371799, "lat": 10.4146771, "lon": 107.2126059}, {"type": "node", "id": 8144371800, "lat": 10.4147246, "lon": 107.2125858}, {"type": "node", "id": 8144371801, "lat": 10.4148266, "lon": 107.2125037}, {"type": "node", "id": 8146478304, "lat": 10.4232108, "lon": 107.2216471}, {"type": "node", "id": 8146478305, "lat": 10.4232082, "lon": 107.2218617}, {"type": "node", "id": 8146478306, "lat": 10.4227782, "lon": 107.2218241}, {"type": "node", "id": 8146478307, "lat": 10.4227888, "lon": 107.2216015}, {"type": "node", "id": 8305483736, "lat": 10.4235685, "lon": 107.2912217, "tags": {"addr:city": "Th\u1ecb tr\u1ea5n Ph\u01b0\u1edbc H\u1ea3i", "addr:district": "\u0110\u1ea5t \u0110\u1ecf", "addr:housenumber": "1 \u00f42/5 H\u1ea3i Ph\u00fac", "addr:province": "B\u00e0 R\u1ecba - V\u0169ng T\u00e0u", "addr:street": "V\u00f5 Th\u1ecb S\u00e1u", "addr:subdistrict": "Ph\u01b0\u1edbc H\u1ea3i", "amenity": "cafe", "cuisine": "sandwich;coffee_shop", "internet_access": "yes", "internet_access:fee": "customers", "name": "Ti\u1ec7m tr\u00e0 b\u00e1nh MiDoRi", "opening_hours": "Mo-Su 10:00-22:00", "phone": "+84902981018", "website": "https://fb.com/trabanhmidori"}}, {"type": "node", "id": 9186621717, "lat": 10.464202, "lon": 107.3150394, "tags": {"name": "\u0111\u1ea5t", "tourism": "attraction"}}, {"type": "node", "id": 9807714517, "lat": 10.5269949, "lon": 107.2306443, "tags": {"name": "Nh\u00e0 B\u1ea1n Phong", "tourism": "guest_house"}}, {"type": "node", "id": 9921754717, "lat": 10.3875148, "lon": 107.2384326, "tags": {"addr:street": "Nguy\u1ec5n Ch\u00ed Thanh", "amenity": "cafe", "name": "Cafe c\u00e2y me", "phone": "0393180379"}}, {"type": "node", "id": 9921754817, "lat": 10.4021513, "lon": 107.2293251, "tags": {"addr:housenumber": "114", "addr:street": "Tr\u01b0\u1eddng Chinh", "amenity": "cafe", "name": "cafe tuy\u1ebft h\u1ed3ng", "phone": "0908379176"}}, {"type": "node", "id": 11049137405, "lat": 10.5777687, "lon": 107.230903, "tags": {"name": "Nh\u00e0 H\u1ea1c", "tourism": "guest_house"}}, {"type": "node", "id": 11258685639, "lat": 10.5814707, "lon": 107.5546076, "tags": {"amenity": "restaurant", "name": "H\u1ea3i s\u1ea3n B\u00ecnh Ch\u00e2u"}}, {"type": "node", "id": 11936637169, "lat": 10.4153739, "lon": 107.2203723, "tags": {"addr:city": "Th\u1ecb tr\u1ea5n Long H\u1ea3i", "addr:district": "Long H\u1ea3i", "addr:housenumber": "92", "addr:postcode": "790000", "addr:province": "B\u00e0 R\u1ecba", "addr:street": "\u0110i\u1ec7n Bi\u00ean Ph\u1ee7", "addr:subdistrict": "Long H\u1ea3i", "amenity": "restaurant", "brand": "M\u00ec Cay SEOUL", "cuisine": "korean", "name": "M\u00ec Cay SEOUL Long H\u1ea3i", "opening_hours": "Mo-Su 08:00-22:00", "phone": "0977586991", "website": "https://micayseoul.com/"}}, {"type": "node", "id": 11968116969, "lat": 10.4208595, "lon": 107.290576, "tags": {"addr:postcode": "794650", "addr:street": "Tr\u1ea7n H\u01b0ng \u0110\u1ea1o", "internet_access": "wlan", "name": "Kh\u00e1ch S\u1ea1n A68", "name:en": "Hotel A68", "opening_hours": "24/7", "phone": "0931 111 113", "tourism": "hotel", "website": "https://a68hotel.com/"}}, {"type": "node", "id": 12249722880, "lat": 10.3990615, "lon": 107.2533984, "tags": {"amenity": "cafe"}}, {"type": "node", "id": 12249723071, "lat": 10.4034555, "lon": 107.2430807}, {"type": "node", "id": 12249723072, "lat": 10.4035307, "lon": 107.2431691}, {"type": "node", "id": 12249723073, "lat": 10.4034901, "lon": 107.2432047}, {"type": "node", "id": 12249723074, "lat": 10.4034582, "lon": 107.2431673}, {"type": "node", "id": 12249723075, "lat": 10.4034274, "lon": 107.2431944}, {"type": "node", "id": 12249723076, "lat": 10.4033999, "lon": 107.2431621}, {"type": "node", "id": 12249723077, "lat": 10.4034283, "lon": 107.2431371}, {"type": "node", "id": 12249723078, "lat": 10.4034125, "lon": 107.2431185}, {"type": "node", "id": 12249723086, "lat": 10.4033705, "lon": 107.2469467}, {"type": "node", "id": 12249723087, "lat": 10.403394, "lon": 107.2469843}, {"type": "node", "id": 12249723088, "lat": 10.403358, "lon": 107.2470076}, {"type": "node", "id": 12249723089, "lat": 10.4033344, "lon": 107.24697}, {"type": "node", "id": 12325401385, "lat": 10.4693025, "lon": 107.3885815}, {"type": "node", "id": 12325452505, "lat": 10.4712351, "lon": 107.3883945}, {"type": "node", "id": 12325452506, "lat": 10.4712405, "lon": 107.3886972}, {"type": "node", "id": 12325452507, "lat": 10.4710261, "lon": 107.3887026}, {"type": "node", "id": 12325452508, "lat": 10.4710225, "lon": 107.3884016}, {"type": "node", "id": 12325452509, "lat": 10.471658, "lon": 107.3887657}, {"type": "node", "id": 12325452510, "lat": 10.4722763, "lon": 107.3875696}, {"type": "node", "id": 12325452511, "lat": 10.4723368, "lon": 107.3869545}, {"type": "node", "id": 12325452512, "lat": 10.4715476, "lon": 107.3839206}, {"type": "node", "id": 12325452513, "lat": 10.4691323, "lon": 107.3840113}, {"type": "node", "id": 12325452514, "lat": 10.4691309, "lon": 107.3873851}, {"type": "node", "id": 12325452515, "lat": 10.4690316, "lon": 107.3926417}, {"type": "node", "id": 12326793578, "lat": 10.4711282, "lon": 107.3884003}, {"type": "node", "id": 12326793582, "lat": 10.4691758, "lon": 107.3880214}, {"type": "node", "id": 12326793587, "lat": 10.4692773, "lon": 107.3883752}, {"type": "node", "id": 12326793589, "lat": 10.4695494, "lon": 107.3885786}, {"type": "node", "id": 12326793590, "lat": 10.4692206, "lon": 107.3885824}, {"type": "node", "id": 12326793591, "lat": 10.4692244, "lon": 107.388915}, {"type": "node", "id": 12326793592, "lat": 10.4695531, "lon": 107.3889111}, {"type": "node", "id": 12326793593, "lat": 10.4713809, "lon": 107.389436}, {"type": "node", "id": 12326793594, "lat": 10.471415, "lon": 107.3917071}, {"type": "node", "id": 12326847058, "lat": 10.5007214, "lon": 107.471137, "tags": {"amenity": "restaurant"}}, {"type": "node", "id": 12326847078, "lat": 10.4724322, "lon": 107.4265563, "tags": {"amenity": "bar"}}, {"type": "node", "id": 12375053976, "lat": 10.4867731, "lon": 107.2269609}, {"type": "node", "id": 12375053977, "lat": 10.4872521, "lon": 107.2260699}, {"type": "node", "id": 12375053978, "lat": 10.487319, "lon": 107.2265022}, {"type": "node", "id": 12375053979, "lat": 10.4871826, "lon": 107.2266178}, {"type": "node", "id": 12375053980, "lat": 10.4869185, "lon": 107.2268387}, {"type": "node", "id": 12375053981, "lat": 10.4866767, "lon": 107.2265156}, {"type": "node", "id": 12375053982, "lat": 10.4869671, "lon": 107.2262953}, {"type": "node", "id": 12381318235, "lat": 10.4886, "lon": 107.2278935, "tags": {"amenity": "fast_food", "fast_food": "cafeteria", "name": "Caf\u00e9 B\u00e0u Th\u00e0nh"}}, {"type": "node", "id": 12538599497, "lat": 10.5372172, "lon": 107.4131599, "tags": {"addr:city": "Th\u1ecb tr\u1ea5n Ph\u01b0\u1edbc B\u1eedu", "addr:housenumber": "362", "addr:postcode": "78500", "addr:province": "B\u00e0 R\u1ecba - V\u0169ng T\u00e0u", "addr:street": "27 Th\u00e1ng 4", "air_conditioning": "yes", "amenity": "cafe", "cuisine": "bubble_tea;coffee_shop;tea", "internet_access": "wlan", "internet_access:fee": "no", "name": "Ti\u1ec7m tr\u00e0 Ali \u0110\u00e0o", "opening_hours": "Mo-Su 09:00-22:00", "outdoor_seating": "yes", "payment:app": "yes", "payment:apple_pay": "yes", "payment:cards": "yes", "payment:cash": "yes", "payment:contactless": "yes", "payment:credit_cards": "no", "payment:google_pay": "yes", "payment:mastercard": "yes", "payment:momo": "no", "payment:visa": "yes", "phone": "+84 333884939", "takeaway": "yes", "toilets": "yes", "website": "https://www.fb.com/tiemtra.alidao/"}}, {"type": "node", "id": 12543237872, "lat": 10.4896372, "lon": 107.2291871, "tags": {"amenity": "cafe", "cuisine": "coffee_shop", "name": "C\u00e2u l\u1ea1c b\u1ed9 H\u1ecdc t\u1eadp v\u00e0 Tr\u1ea3i nghi\u1ec7m B\u00e0u Th\u00e0nh"}}, {"type": "node", "id": 12706554520, "lat": 10.3866889, "lon": 107.2374824, "tags": {"amenity": "restaurant", "cuisine": "seafood"}}, {"type": "node", "id": 12782038692, "lat": 10.4875359, "lon": 107.2304572}, {"type": "node", "id": 12782038693, "lat": 10.4881653, "lon": 107.2310025}, {"type": "node", "id": 12782038694, "lat": 10.4868809, "lon": 107.2299088}, {"type": "node", "id": 12921201826, "lat": 10.5001715, "lon": 107.4714011, "tags": {"addr:district": "Xuy\u00ean M\u1ed9c", "addr:province": "B\u00e0 R\u1ecba-V\u0169ng T\u00e0u", "addr:street": "\u0110\u01b0\u1eddng Ven Bi\u1ec3n", "addr:subdistrict": "B\u01b0ng Ri\u1ec1ng", "name": "H\u01b0\u01a1ng Phong H\u1ed3 C\u1ed1c Beach Resort", "phone": "+842543878145", "tourism": "hotel", "website": "huongphonghococbeachresort.com"}}, {"type": "node", "id": 12955735850, "lat": 10.4888851, "lon": 107.2690456}, {"type": "node", "id": 12955735851, "lat": 10.4888747, "lon": 107.2690757}, {"type": "node", "id": 12955735852, "lat": 10.4887755, "lon": 107.2698932}, {"type": "node", "id": 12955735853, "lat": 10.4887807, "lon": 107.269941}, {"type": "node", "id": 12955735854, "lat": 10.4887912, "lon": 107.2699817}, {"type": "node", "id": 12955735855, "lat": 10.4889164, "lon": 107.2702153}, {"type": "node", "id": 12955735856, "lat": 10.489682, "lon": 107.2697057}, {"type": "node", "id": 12955735857, "lat": 10.4897047, "lon": 107.2696827}, {"type": "node", "id": 12955735858, "lat": 10.4897221, "lon": 107.2696508}, {"type": "node", "id": 12955735859, "lat": 10.4897342, "lon": 107.2696083}, {"type": "node", "id": 12955735860, "lat": 10.489736, "lon": 107.2695676}, {"type": "node", "id": 13000885346, "lat": 10.4176985, "lon": 107.2181058}, {"type": "node", "id": 13000885347, "lat": 10.4173401, "lon": 107.2186227}, {"type": "node", "id": 13000885348, "lat": 10.4173627, "lon": 107.2186672}, {"type": "node", "id": 13000885349, "lat": 10.4173774, "lon": 107.2186793}, {"type": "node", "id": 13017911000, "lat": 10.4714807, "lon": 107.3924464}, {"type": "node", "id": 13097094264, "lat": 10.4695418, "lon": 107.3762098, "tags": {"brand": "Angsana", "name": "Angsana Ho Tram & Dhawa", "tourism": "hotel"}}, {"type": "node", "id": 13097094269, "lat": 10.4700643, "lon": 107.3793205, "tags": {"brand": "Hyatt Regency", "brand:wikidata": "Q115794868", "name": "Hyatt Regency Ho Tram Resort and Residences", "tourism": "hotel"}}, {"type": "node", "id": 13097094274, "lat": 10.4701897, "lon": 107.3824632, "tags": {"brand": "M\u00f6venpick", "brand:wikidata": "Q691162", "name": "M\u00f6venpick Wonderland - NovaWorld Ho Tram", "tourism": "hotel"}}, {"type": "node", "id": 13097094284, "lat": 10.4705478, "lon": 107.3954743, "tags": {"name": "Emerald H\u1ed3 Tr\u00e0m Resort", "tourism": "hotel"}}, {"type": "node", "id": 13097094295, "lat": 10.4690163, "lon": 107.4084253, "tags": {"name": "Sales Gallery Charm Resort H\u1ed3 Tr\u00e0m", "stars": "5", "tourism": "hotel"}}, {"type": "node", "id": 13097094296, "lat": 10.4882418, "lon": 107.4576317, "tags": {"name": "Ixora Ho Tram By Fusion", "tourism": "hotel"}}, {"type": "node", "id": 13097094297, "lat": 10.4858251, "lon": 107.4549387, "tags": {"brand": "Holiday Inn", "brand:wikidata": "Q2717882", "name": "Holiday Inn Resort Ho Tram Beach by IHG", "tourism": "hotel"}}, {"type": "node", "id": 13097100002, "lat": 10.5354666, "lon": 107.5369592, "tags": {"name": "Happy Stay Resort", "tourism": "hotel"}}, {"type": "way", "id": 254983237, "nodes": [2607408810, 2607408811, 2607408812, 2607408813, 2607408810], "tags": {"leisure": "park", "name": "C\u00f4ng vi\u00ean Tr\u1ea7n V\u0103n Th\u01b0\u1ee3ng", "name:en": "Tran Van Thuong Park", "name:id": "Taman Tran Van Thuong", "name:zh": "\u9648\u6587\u4e0a\u516c\u56ed"}}, {"type": "way", "id": 259046004, "nodes": [2643686941, 2643686944, 2643686947, 2643686950, 2643686953, 2643686956, 2643686959, 2643686941], "tags": {"leisure": "park", "name": "C\u00f4ng vi\u00ean V\u00f5 Th\u1ecb S\u00e1u", "name:en": "Vo Thi Sau Park", "name:id": "Taman Vo Thi Sau", "name:zh": "\u6b66\u6c0f\u516d\u516c\u56ed"}}, {"type": "way", "id": 259097818, "nodes": [2644320535, 2644320536, 2644320537, 2644320539, 2644320540, 2644320542, 2644320544, 2644320547, 2644320549, 2644320553, 2644320555, 2644320558, 2644320535], "tags": {"leisure": "park", "name": "C\u00f4ng vi\u00ean Ph\u01b0\u1edbc H\u01b0ng"}}, {"type": "way", "id": 259198631, "nodes": [2645526130, 2645526131, 2645526132, 2645526133, 2645526134, 2645526135, 2645526136, 2645526137, 2645526138, 2645526139, 2645526140, 2645526141, 2645526142, 2645526143, 2645526144, 2645526146, 2645526145, 2645526130], "tags": {"addr:street": "\u0110\u01b0\u1eddng s\u1ed1 6", "alt_name": "Dinh C\u00f4 L\u00f4ng H\u1ea3i", "amenity": "place_of_worship", "building": "temple", "name": "Dinh C\u00f4", "name:en": "Dinh Co Temple", "name:id": "Kelenteng Dinh Co", "name:zh": "\u8425\u59d1", "religion": "vietnamese_folk", "tourism": "attraction"}}, {"type": "way", "id": 259924685, "nodes": [2653856125, 2653856126, 2653856127, 2653856128, 2653856335, 2653856129, 2653856130, 2653856131, 2653856132, 2653856133, 2653856134, 2653856135, 2653856136, 2653856138, 2653856139, 2653856141, 2653856143, 2653856145, 2653856146, 2653856148, 2653856150, 2653856152, 2653856153, 2653856336, 2653856155, 2653856157, 2653856125], "tags": {"building": "yes", "tourism": "hotel"}}, {"type": "way", "id": 259925852, "nodes": [2653865600, 2653865601, 2653865602, 2653865603, 2653865600], "tags": {"leisure": "park"}}, {"type": "way", "id": 302381604, "nodes": [3066398354, 3066398355, 3066398353, 3066398357, 3066398354], "tags": {"leisure": "park"}}, {"type": "way", "id": 321072591, "nodes": [3277873270, 3277873267, 3277873264, 13000885349, 13000885348, 3277873263, 13000885347, 3277873262, 3277873265, 3277873266, 13000885346, 3277873268, 3277873269, 3277873272, 3277873274, 3277873273, 3277873271, 3277873270], "tags": {"addr:street": "Ng\u00e3 ba L\u00f2 V\u00f4i", "leisure": "park", "name": "C\u00f4ng vi\u00ean L\u00f2 V\u00f4i"}}, {"type": "way", "id": 366645177, "nodes": [3706341115, 3706341114, 7936068259, 3706341082, 3706341081, 3706341078, 7936068260, 3706341077, 3706341079, 3706341094, 3706341097, 4789617902, 3706341088, 3706341085, 3706341086, 3706341087, 3706341089, 3706341090, 3706341091, 3706341116, 3706341115], "tags": {"leisure": "park", "name": "C\u00f4ng vi\u00ean B\u1edd H\u1ed3", "name:en": "Lakeside Park", "name:vi": "C\u00f4ng vi\u00ean B\u1edd H\u1ed3", "name:zh": "\u6e56\u8fb9\u516c\u56ed"}}, {"type": "way", "id": 402896420, "nodes": [4052976820, 4052976821, 4052976822, 4052976823, 4052976824, 4052976825, 4052976826, 4052976827, 4052976828, 4052976829, 4052976830, 4052976820], "tags": {"leisure": "park"}}, {"type": "way", "id": 402896422, "nodes": [4052976831, 4052976832, 4052976833, 4052976834, 4052976835, 4052976836, 4052976837, 4052976838, 4052976839, 4052976840, 4052976841, 4052976831], "tags": {"leisure": "park"}}, {"type": "way", "id": 564325028, "nodes": [5437423452, 5437423451, 6875316283, 6875316282, 5437423450, 5437423449, 5437423448, 5437423452], "tags": {"leisure": "park"}}, {"type": "way", "id": 569352552, "nodes": [5475657679, 5475657678, 5475657677, 5475657676, 5475657675, 5475657674, 5475657673, 5475657672, 5475657679], "tags": {"building": "yes", "name": "Nh\u00e0 l\u01b0u ni\u1ec7m V\u00f5 Th\u1ecb S\u00e1u", "name:en": "Vo Thi Sau\u2019s House Museum", "name:id": "Rumah Pahlawan Vo Thi Sau", "tourism": "museum"}}, {"type": "way", "id": 569352569, "nodes": [5475657772, 5475657771, 5475657770, 5475657769, 5475657772], "tags": {"leisure": "park"}}, {"type": "way", "id": 688314062, "nodes": [5475658215, 6454116047, 6454116048, 5475658214, 5475658215], "tags": {"leisure": "park"}}, {"type": "way", "id": 691444038, "nodes": [6488159893, 6488159892, 6488159891, 6488159890, 6488159889, 6488159893], "tags": {"leisure": "park"}}, {"type": "way", "id": 691444045, "nodes": [6488159913, 6488159920, 6488159919, 6488159922, 6488159921, 6488159912, 6488159911, 6488159918, 6488159917, 6488159916, 6488159915, 6488159914, 6488159913], "tags": {"addr:city": "Th\u1ecb tr\u1ea5n Long H\u1ea3i", "addr:district": "Huy\u1ec7n Long \u0110i\u1ec1n", "addr:housenumber": "210", "addr:postcode": "78000", "addr:province": "B\u00e0 R\u1ecba V\u0169ng T\u00e0u", "addr:street": "Hai B\u00e0 Tr\u01b0ng", "addr:subdistrict": "Th\u1ecb Tr\u1ea5n Long H\u1ea3i", "amenity": "restaurant", "building": "yes", "cuisine": "regional", "name": "Palace Long Hai Resort"}}, {"type": "way", "id": 691968358, "nodes": [6495181168, 6495181167, 6495181166, 6495181165, 6495181164, 6495181163, 6495181162, 6495181161, 6495181160, 6495181159, 6495181158, 6495181157, 6495181168], "tags": {"building": "hotel", "name": "Nh\u00e0 ngh\u1ec9 \u0110o\u00e0n An \u0111i\u1ec1u d\u01b0\u1ee1ng 298", "tourism": "hotel"}}, {"type": "way", "id": 732623302, "nodes": [6860390810, 6860390809, 6860390808, 6860390807, 6860390806, 6860390805, 6860390804, 6860390803, 6860390810], "tags": {"leisure": "park"}}, {"type": "way", "id": 732623331, "nodes": [6860391112, 6860391111, 6860391118, 6860391117, 6860391110, 6860391112], "tags": {"leisure": "garden"}}, {"type": "way", "id": 734151504, "nodes": [6875316273, 6875316272, 6875316271, 6875316270, 6875316273], "tags": {"leisure": "park"}}, {"type": "way", "id": 734814110, "nodes": [6881739904, 6881739903, 6881739902, 6881739901, 6881739900, 6881739899, 6881739898, 6881739897, 6881739896, 6881739895, 6881739894, 6881739893, 6881739892, 6881739891, 6881739890, 6881739889, 6881739888, 6881739887, 6881739886, 6881739885, 6881739884, 6881739883, 6881739882, 6881739881, 6881739880, 6881739879, 6881739878, 6881739877, 6881739876, 6881739904], "tags": {"leisure": "garden"}}, {"type": "way", "id": 736162137, "nodes": [6892188012, 6892188011, 6892188010, 6892188009, 6892188012], "tags": {"building": "yes", "name": "Oceanward Hotel", "tourism": "hotel"}}, {"type": "way", "id": 736971780, "nodes": [6899807721, 6899807720, 6899807719, 6899807718, 6899807717, 6899807716, 6899807715, 6899807714, 6899807721], "tags": {"building": "yes", "name": "Bella Vita", "tourism": "hotel"}}, {"type": "way", "id": 737018008, "nodes": [6900182558, 6900182557, 6900182556, 6900182555, 6900182554, 6900182553, 6900182552, 6900182551, 6900182558], "tags": {"leisure": "park"}}, {"type": "way", "id": 737018072, "nodes": [6900183163, 6900183162, 7791181345, 6900183172, 6900183161, 6900183160, 6900183159, 6900183158, 6900183157, 6900183156, 6900183155, 6900183154, 6900183153, 6900183152, 6900183163], "tags": {"leisure": "park"}}, {"type": "way", "id": 737568655, "nodes": [6905629174, 6905629183, 6905629182, 6905629181, 6905629180, 6905629179, 6905629178, 6905629177, 6905629176, 6905629175, 6905629174], "tags": {"leisure": "park"}}, {"type": "way", "id": 737864972, "nodes": [6908959422, 6908959421, 6908959420, 6908959419, 6908959422], "tags": {"leisure": "park", "name": "Di t\u00edch D\u1ed1c C\u00e2y C\u00e1m"}}, {"type": "way", "id": 739006717, "nodes": [6919467705, 6919467704, 6919467703, 6919467702, 6919467701, 6919467700, 6919467705], "tags": {"leisure": "garden"}}, {"type": "way", "id": 739006757, "nodes": [6919523007, 6919523006, 6919523005, 6919523004, 6919523030, 6919523029, 6919523028, 6919523027, 6919523026, 6919523025, 6919523024, 6919523023, 6919523022, 6919523021, 6919523020, 6919523019, 6919523018, 6919523017, 6919523016, 6919523031, 6919523015, 6919523014, 6919523013, 6919523012, 6919523011, 6919523010, 6919523009, 6919523008, 6919523007], "tags": {"building": "yes", "name": "MGM Grand Ho Tram", "tourism": "hotel"}}, {"type": "way", "id": 739078469, "nodes": [6920067190, 6920066881, 6920066880, 6920066879, 6920066878, 6920066877, 6920066876, 6920066875, 6920066874, 6920066873, 6920066872, 6920066871, 6920067190], "tags": {"leisure": "park", "name": "Khu du l\u1ecbch Gi\u00f3 Bi\u1ec3n"}}, {"type": "way", "id": 739078475, "nodes": [6920067036, 6920067040, 6920067039, 6920067038, 6920067037, 6920067036], "tags": {"leisure": "park"}}, {"type": "way", "id": 739799897, "nodes": [6927121039, 6927121038, 6927121037, 6927121036, 6927121035, 6927121034, 6927121039], "tags": {"name": "H\u1ed3 Tr\u00e0m Beach Boutique Resort & Spa", "tourism": "hotel"}}, {"type": "way", "id": 739799912, "nodes": [6927121139, 6927121138, 6927121137, 6927121136, 6927121135, 6927121134, 6927121133, 6927121132, 6927121131, 6927121130, 6927121139], "tags": {"leisure": "park"}}, {"type": "way", "id": 740715576, "nodes": [6934915298, 6934915297, 6934915296, 6934915295, 6934915294, 6934915293, 6934915292, 6934915291, 6934915298], "tags": {"amenity": "restaurant", "building": "yes", "name": "B\u00e1nh h\u1ecfi An Nh\u1ee9t"}}, {"type": "way", "id": 740715591, "nodes": [6934915380, 6934915379, 6934915378, 6934915377, 6934915376, 5475657973, 6934915375, 6934915374, 6934915373, 6934915380], "tags": {"leisure": "park"}}, {"type": "way", "id": 741239551, "nodes": [6939272381, 6939272380, 6939272421, 6939272420, 6939272419, 6939272418, 6939272382, 6939272494, 6939272493, 6939272495, 6939272383, 6939272381], "tags": {"leisure": "park", "name": "\u0110\u1ecba \u0111\u1ea1o Long Ph\u01b0\u1edbc"}}, {"type": "way", "id": 741239559, "nodes": [6939272538, 6939272537, 6939272536, 6939272535, 6939272534, 6939272533, 6939272538], "tags": {"building": "yes", "name": "B\u1ea3o t\u00e0ng \u0111\u1ecba \u0111\u1ea1o Long Ph\u01b0\u1edbc", "tourism": "museum"}}, {"type": "way", "id": 741239603, "nodes": [6939272872, 6939272871, 6939272870, 6939272869, 6939272868, 6939272867, 6939272866, 6939272618, 6939272810, 6939272872], "tags": {"leisure": "park", "name": "C\u00f4ng vi\u00ean D\u01b0\u01a1ng V\u0103n M\u1ea1nh"}}, {"type": "way", "id": 741239642, "nodes": [12782038694, 12782038692, 12782038693, 6939273347, 6939273346, 6939273345, 6939273344, 6939273101, 6939273102, 6939273103, 6939273104, 6939273105, 6939273106, 6939273107, 6939273343, 6939273342, 6937328096, 6937328097, 6937328098, 6937328099, 6939273341, 6939273340, 6939273339, 12375053977, 12375053982, 6939273404, 12375053981, 6939273405, 6939273413, 6939273414, 6939273415, 6939273338, 6939273337, 6939273336, 6939273335, 12782038694], "tags": {"leisure": "park", "name": "C\u00f4ng vi\u00ean V\u0103n ho\u00e1 th\u1ec3 thao B\u00e0u Th\u00e0nh", "name:en": "Bau Thanh Cultural and Sports Park", "name:id": "Taman Kebudayaan dan Olahraga Bau Thanh", "name:ru": "\u043a\u0443\u043b\u044c\u0442\u0443\u0440\u043d\u043e-\u0441\u043f\u043e\u0440\u0442\u0438\u0432\u043d\u044b\u0439 \u043f\u0430\u0440\u043a \u0411\u0430\u0443 \u0422\u0445\u0430\u043d\u044c", "name:zh": "\u5b9d\u6210\u6587\u5316\u8fd0\u52a8\u516c\u56ed"}}, {"type": "way", "id": 748981282, "nodes": [7004173877, 7004173876, 7004173875, 7004173874, 7004173873, 7004173872, 7004173871, 7004173870, 7004173869, 7004173868, 7004173867, 7004173877], "tags": {"amenity": "restaurant", "building": "yes", "name": "Victory"}}, {"type": "way", "id": 748981309, "nodes": [7004174013, 7004174011, 7004174010, 7004174009, 7004174008, 7004174007, 7004174006, 7004174005, 7004174004, 7004174003, 3706341097, 7004174002, 7004174026, 7004174013], "tags": {"leisure": "park"}}, {"type": "way", "id": 775768957, "nodes": [7237204554, 7237204555, 7237204556, 7237204557, 7237206563, 7237204558, 7237204559, 7237204560, 7237204561, 7237204562, 7237204563, 7237204564, 7237204554], "tags": {"amenity": "restaurant", "building": "yes"}}, {"type": "way", "id": 816401592, "nodes": [7624875013, 7624875014, 7624875015, 7624875016, 1276258249, 7624875017, 7624875018, 7624875019, 7624875020, 7624875021, 7624875022, 7624875013], "tags": {"addr:city": "X\u00e3 L\u1ed9c An", "addr:district": "Xuy\u00ean M\u1ed9c", "addr:province": "B\u00e0 R\u1ecba - V\u0169ng T\u00e0u", "addr:street": "\u0110\u01b0\u1eddng Ven Bi\u1ec3n", "addr:subdistrict": "Ph\u01b0\u1edbc Thu\u1eadn", "name": "H\u1ed3 Tr\u00e0m Complex", "phone": "0904666807", "tourism": "attraction"}}, {"type": "way", "id": 835040004, "nodes": [7794642713, 7794642712, 7794642711, 7794642710, 7794642709, 7794642708, 7794642707, 7794642706, 7794642705, 7794642704, 7794642703, 7794642702, 7794642701, 7794642700, 7794642699, 7794642698, 7794642697, 7794642696, 7794642695, 7794642694, 7794642693, 7794642713], "tags": {"leisure": "park"}}, {"type": "way", "id": 835498201, "nodes": [7798497201, 7798497200, 7798497199, 7798497198, 7798497197, 7798497196, 7798497201], "tags": {"building": "yes", "name": "V\u00e2n Ho\u00e0 Ph\u00e1t", "tourism": "hotel"}}, {"type": "way", "id": 874946718, "nodes": [8144371792, 8144371793, 8144371794, 8144371795, 8144371796, 8144371797, 8144371798, 8144371799, 8144371800, 8144371801, 8144371792], "tags": {"leisure": "park", "name": "Local Garden Places"}}, {"type": "way", "id": 875196271, "nodes": [8146478304, 8146478305, 8146478306, 8146478307, 8146478304], "tags": {"leisure": "park", "name": "C\u00f4ng vi\u00ean sau nh\u00e0 th\u1edd"}}, {"type": "way", "id": 1323766599, "nodes": [12249723071, 12249723072, 12249723073, 12249723074, 12249723075, 12249723076, 12249723077, 12249723078, 12249723071], "tags": {"amenity": "fast_food", "building": "yes", "fast_food": "cafeteria"}}, {"type": "way", "id": 1323766601, "nodes": [12249723086, 12249723087, 12249723088, 12249723089, 12249723086], "tags": {"amenity": "bar", "building": "shelter", "name": "Canned soft drinks"}}, {"type": "way", "id": 1332147533, "nodes": [12325452505, 12325452506, 12325452507, 12325452508, 12326793578, 12325452505], "tags": {"amenity": "restaurant", "building": "yes", "name": "Sasa"}}, {"type": "way", "id": 1332147534, "nodes": [12325452509, 12325452510, 12325452511, 12325452512, 12325452513, 12325452514, 12326793582, 12326793587, 12326793590, 12325452515, 13017911000, 12326793594, 12326793593, 12325452509], "tags": {"brand": "Meli\u00e1", "brand:wikidata": "Q1815030", "name": "Meli\u00e1 H\u1ed3 Tr\u00e0m", "tourism": "hotel"}}, {"type": "way", "id": 1332410565, "nodes": [12326793589, 12325401385, 12326793590, 12326793591, 12326793592, 12326793589], "tags": {"amenity": "restaurant", "building": "yes", "name": "Breeze"}}, {"type": "way", "id": 1337857599, "nodes": [12375053976, 6939273415, 6939273414, 6939273413, 6939273405, 12375053981, 12375053982, 12375053977, 12375053978, 12375053979, 12375053980, 12375053976], "tags": {"leisure": "park"}}, {"type": "way", "id": 1409964975, "nodes": [6860391117, 6860391112, 12955735850, 12955735851, 12955735852, 12955735853, 12955735854, 12955735855, 12955735856, 12955735857, 12955735858, 12955735859, 12955735860, 6860391117], "tags": {"leisure": "park", "name": "C\u00f4ng vi\u00ean \u0110\u1ea5t \u0110\u1ecf"}}]}