{"version": 0.6, "generator": "Overpass API 0.7.62.8 e802775f", "osm3s": {"timestamp_osm_base": "2025-11-21T16:40:35Z", "copyright": "The data included in this document is from www.openstreetmap.org. The data is made available under ODbL."}, "elements": [{"type": "node", "id": 6274092945, "lat": 9.4383435, "lon": 106.182567, "tags": {"name": "Du l\u1ecbch Sinh th\u00e1i M\u1ecf \u00d3", "tourism": "attraction"}}, {"type": "node", "id": 12598636206, "lat": 9.6642471, "lon": 106.1502014, "tags": {"name": "Queen hotel", "phone": "+842993860777", "tourism": "hotel"}}, {"type": "node", "id": 12598642312, "lat": 9.6650092, "lon": 106.1509062, "tags": {"amenity": "restaurant", "name": "M\u1ed9c Tr\u00fac Anh", "phone": "+84 898 989 474"}}, {"type": "node", "id": 12600757449, "lat": 9.6637401, "lon": 106.1497489, "tags": {"amenity": "fast_food", "delivery": "yes", "name": "Q97", "phone": "+84 366 436 664"}}, {"type": "node", "id": 12600770655, "lat": 9.6641636, "lon": 106.1501665, "tags": {"amenity": "restaurant", "name": "Qu\u00e2n Nh\u1eadu"}}, {"type": "node", "id": 12600792664, "lat": 9.6642745, "lon": 106.1502731, "tags": {"amenity": "restaurant", "name": "Ng\u1ecdc h\u00e0"}}, {"type": "node", "id": 12600796105, "lat": 9.6644957, "lon": 106.1502404, "tags": {"amenity": "restaurant", "name": "Ph\u1ed5 - b\u00fan b\u00f2 hu\u1ebf 86"}}, {"type": "node", "id": 12600808624, "lat": 9.6647413, "lon": 106.1506567, "tags": {"amenity": "restaurant", "name": "Qu\u00e1n Cay", "phone": "+84 898 989 474"}}, {"type": "node", "id": 12600829278, "lat": 9.6658263, "lon": 106.1516843, "tags": {"mobile": "+84 986 470 247", "name": "Ngh\u00ecn L\u1ebb M\u1ed9t \u0110\u00eam", "phone": "+84 2993 860 559", "tourism": "hotel"}}, {"type": "node", "id": 12600836991, "lat": 9.6659665, "lon": 106.1517561, "tags": {"amenity": "restaurant", "name": "T\u00fa xuy\u00ean", "phone": "+84 795 769 567"}}, {"type": "node", "id": 12600850121, "lat": 9.6663056, "lon": 106.1520709, "tags": {"amenity": "cafe", "name": "Caf\u00e9 B\u01b0\u1edfi"}}, {"type": "node", "id": 12615270975, "lat": 9.6677303, "lon": 106.1532899, "tags": {"amenity": "restaurant", "mobile": "+84 877 046 969", "name": "Kun", "phone": "+84 972 811 971"}}]}